{"type":"FeatureCollection","features":[{"type":"Feature","geometry":{"type":"Polygon","coordinates":[[[112.740788,-7.234686],[112.740742,-7.234882],[112.741659,-7.235233],[112.741746,-7.235044],[112.740788,-7.234686]]]},"properties":{"no":1,"type":"building"}},{"type":"Feature","geometry":{"type":"Polygon","coordinates":[[[112.747456,-7.233834],[112.747403,-7.233948],[112.747369,-7.234035],[112.74735,-7.234038],[112.747702,-7.234168],[112.747746,-7.233948],[112.747456,-7.233834]]]},"properties":{"no":2,"type":"building"}},{"type":"Feature","geometry":{"type":"Polygon","coordinates":[[[112.747802,-7.234127],[112.747734,-7.234366],[112.748011,-7.234506],[112.748099,-7.234253],[112.747802,-7.234127]]]},"properties":{"no":3,"type":"building"}},{"type":"Feature","geometry":{"type":"Polygon","coordinates":[[[112.751756,-7.232755],[112.751791,-7.232734],[112.751881,-7.232926],[112.751965,-7.232904],[112.751997,-7.232966],[112.752296,-7.232814],[112.752199,-7.232598],[112.752134,-7.232632],[112.752056,-7.23252],[112.752131,-7.232505],[112.752043,-7.232356],[112.751694,-7.232533],[112.751597,-7.232434],[112.751476,-7.232495],[112.751657,-7.232793],[112.751756,-7.232755]]]},"properties":{"no":4,"type":"building"}},{"type":"Feature","geometry":{"type":"Polygon","coordinates":[[[112.753729,-7.233066],[112.753467,-7.233233],[112.753591,-7.233406],[112.75386,-7.233264],[112.753729,-7.233066]]]},"properties":{"no":5,"type":"building"}},{"type":"Feature","geometry":{"type":"Polygon","coordinates":[[[112.754669,-7.233761],[112.754678,-7.233974],[112.754725,-7.23399],[112.754819,-7.234454],[112.754987,-7.234442],[112.754884,-7.233733],[112.754669,-7.233761]]]},"properties":{"no":6,"type":"building"}},{"type":"Feature","geometry":{"type":"Polygon","coordinates":[[[112.755484,-7.23595],[112.755568,-7.23639],[112.755627,-7.236377],[112.755649,-7.236613],[112.756077,-7.236545],[112.755993,-7.235895],[112.755484,-7.23595]]]},"properties":{"no":7,"type":"building"}},{"type":"Feature","geometry":{"type":"Polygon","coordinates":[[[112.752323,-7.239017],[112.752275,-7.239215],[112.752586,-7.239322],[112.752627,-7.239157],[112.752816,-7.238527],[112.752614,-7.238447],[112.752414,-7.238772],[112.752323,-7.239017]]]},"properties":{"no":8,"type":"building"}},{"type":"Feature","geometry":{"type":"Polygon","coordinates":[[[112.751199,-7.242634],[112.751128,-7.242984],[112.751323,-7.243079],[112.751354,-7.242882],[112.751422,-7.242892],[112.751477,-7.242699],[112.751199,-7.242634]]]},"properties":{"no":9,"type":"building"}},{"type":"Feature","geometry":{"type":"Polygon","coordinates":[[[112.746346,-7.245622],[112.746335,-7.245733],[112.746382,-7.245749],[112.746393,-7.245637],[112.746346,-7.245622]]]},"properties":{"no":0,"type":"building"}},{"type":"Feature","geometry":{"type":"Polygon","coordinates":[[[112.745643,-7.244974],[112.745551,-7.245148],[112.745599,-7.245174],[112.745687,-7.245003],[112.745643,-7.244974]]]},"properties":{"no":1,"type":"building"}},{"type":"Feature","geometry":{"type":"Polygon","coordinates":[[[112.74367,-7.245385],[112.743687,-7.245612],[112.743737,-7.24561],[112.743733,-7.245389],[112.74367,-7.245385]]]},"properties":{"no":2,"type":"building"}},{"type":"Feature","geometry":{"type":"Polygon","coordinates":[[[112.743709,-7.246976],[112.743682,-7.247211],[112.743817,-7.247221],[112.743825,-7.246997],[112.743709,-7.246976]]]},"properties":{"no":3,"type":"building"}},{"type":"Feature","geometry":{"type":"Polygon","coordinates":[[[112.743493,-7.244966],[112.743482,-7.245192],[112.743928,-7.245202],[112.743943,-7.245003],[112.743493,-7.244966]]]},"properties":{"no":4,"type":"building"}},{"type":"Feature","geometry":{"type":"Polygon","coordinates":[[[112.744012,-7.245035],[112.743957,-7.245275],[112.744522,-7.245446],[112.744593,-7.245172],[112.744012,-7.245035]]]},"properties":{"no":5,"type":"building"}},{"type":"Feature","geometry":{"type":"Polygon","coordinates":[[[112.744956,-7.24777],[112.744949,-7.247934],[112.745092,-7.247944],[112.745102,-7.247786],[112.744956,-7.24777]]]},"properties":{"no":6,"type":"building"}},{"type":"Feature","geometry":{"type":"Polygon","coordinates":[[[112.743795,-7.248243],[112.743772,-7.248542],[112.743931,-7.24856],[112.74394,-7.248268],[112.743795,-7.248243]]]},"properties":{"no":7,"type":"building"}},{"type":"Feature","geometry":{"type":"Polygon","coordinates":[[[112.741724,-7.249352],[112.741672,-7.249462],[112.741738,-7.249496],[112.741789,-7.249375],[112.741724,-7.249352]]]},"properties":{"no":8,"type":"building"}},{"type":"Feature","geometry":{"type":"Polygon","coordinates":[[[112.741162,-7.249727],[112.741295,-7.24986],[112.741384,-7.249802],[112.741235,-7.249649],[112.741162,-7.249727]]]},"properties":{"no":9,"type":"building"}},{"type":"Feature","geometry":{"type":"Polygon","coordinates":[[[112.741465,-7.252028],[112.741339,-7.251978],[112.741305,-7.252057],[112.741545,-7.252169],[112.741584,-7.252076],[112.741465,-7.252028]]]},"properties":{"no":0,"type":"building"}},{"type":"Feature","geometry":{"type":"Polygon","coordinates":[[[112.737493,-7.25253],[112.737584,-7.252548],[112.7377,-7.252581],[112.737714,-7.252542],[112.737721,-7.25247],[112.737524,-7.252437],[112.737493,-7.25253]]]},"properties":{"no":1,"type":"building"}},{"type":"Feature","geometry":{"type":"Polygon","coordinates":[[[112.73771,-7.252564],[112.737701,-7.252585],[112.737692,-7.2526],[112.737688,-7.252601],[112.737666,-7.252656],[112.737765,-7.25265],[112.737777,-7.252588],[112.73771,-7.252564]]]},"properties":{"no":2,"type":"building"}},{"type":"Feature","geometry":{"type":"Polygon","coordinates":[[[112.737717,-7.252477],[112.737712,-7.252564],[112.737768,-7.252572],[112.737797,-7.252503],[112.737717,-7.252477]]]},"properties":{"no":3,"type":"building"}},{"type":"Feature","geometry":{"type":"Polygon","coordinates":[[[112.738091,-7.252995],[112.738062,-7.253088],[112.738122,-7.25311],[112.738093,-7.253168],[112.738331,-7.253226],[112.738385,-7.253078],[112.738267,-7.253015],[112.738091,-7.252995]]]},"properties":{"no":4,"type":"building"}},{"type":"Feature","geometry":{"type":"Polygon","coordinates":[[[112.738403,-7.253066],[112.738339,-7.253229],[112.738518,-7.253288],[112.73854,-7.253226],[112.738508,-7.253177],[112.738539,-7.253117],[112.738403,-7.253066]]]},"properties":{"no":5,"type":"building"}},{"type":"Feature","geometry":{"type":"Polygon","coordinates":[[[112.738911,-7.255199],[112.738874,-7.25531],[112.738998,-7.255359],[112.739039,-7.255262],[112.738949,-7.255212],[112.738911,-7.255199]]]},"properties":{"no":6,"type":"building"}},{"type":"Feature","geometry":{"type":"Polygon","coordinates":[[[112.739563,-7.255217],[112.739538,-7.255376],[112.739633,-7.255391],[112.73968,-7.255257],[112.739563,-7.255217]]]},"properties":{"no":7,"type":"building"}},{"type":"Feature","geometry":{"type":"Polygon","coordinates":[[[112.738455,-7.256245],[112.738444,-7.256308],[112.738473,-7.25632],[112.738448,-7.25679],[112.738661,-7.256826],[112.738706,-7.256299],[112.73863,-7.256297],[112.738625,-7.25627],[112.738455,-7.256245]]]},"properties":{"no":8,"type":"building"}},{"type":"Feature","geometry":{"type":"Polygon","coordinates":[[[112.738793,-7.256303],[112.738768,-7.256903],[112.738984,-7.256909],[112.739009,-7.256319],[112.738793,-7.256303]]]},"properties":{"no":9,"type":"building"}},{"type":"Feature","geometry":{"type":"Polygon","coordinates":[[[112.740082,-7.258227],[112.740074,-7.258301],[112.740051,-7.258357],[112.740155,-7.258384],[112.7402,-7.258275],[112.740082,-7.258227]]]},"properties":{"no":0,"type":"building"}},{"type":"Feature","geometry":{"type":"Polygon","coordinates":[[[112.740118,-7.258107],[112.740111,-7.258179],[112.740212,-7.258209],[112.740217,-7.258183],[112.740193,-7.258169],[112.740194,-7.258133],[112.740118,-7.258107]]]},"properties":{"no":1,"type":"building"}},{"type":"Feature","geometry":{"type":"Polygon","coordinates":[[[112.74021,-7.258212],[112.74017,-7.258243],[112.740276,-7.25828],[112.740289,-7.258236],[112.74021,-7.258212]]]},"properties":{"no":2,"type":"building"}},{"type":"Feature","geometry":{"type":"Polygon","coordinates":[[[112.739937,-7.259374],[112.739963,-7.259413],[112.740015,-7.259456],[112.740264,-7.259187],[112.740601,-7.259493],[112.740366,-7.259741],[112.740434,-7.259831],[112.740744,-7.259504],[112.74068,-7.259429],[112.740693,-7.259385],[112.740343,-7.259097],[112.740233,-7.25903],[112.739937,-7.259374]]]},"properties":{"no":3,"type":"building"}},{"type":"Feature","geometry":{"type":"Polygon","coordinates":[[[112.740743,-7.259916],[112.740707,-7.259993],[112.740653,-7.259966],[112.740603,-7.260027],[112.740498,-7.260029],[112.740389,-7.260258],[112.740722,-7.260433],[112.740943,-7.260025],[112.740743,-7.259916]]]},"properties":{"no":4,"type":"building"}},{"type":"Feature","geometry":{"type":"Polygon","coordinates":[[[112.740075,-7.260671],[112.739943,-7.260764],[112.740003,-7.260885],[112.740138,-7.260841],[112.740194,-7.260962],[112.740264,-7.26107],[112.740403,-7.260982],[112.740358,-7.260894],[112.740415,-7.260871],[112.740293,-7.260653],[112.740264,-7.260675],[112.740179,-7.260517],[112.740037,-7.260607],[112.740075,-7.260671]]]},"properties":{"no":5,"type":"building"}},{"type":"Feature","geometry":{"type":"Polygon","coordinates":[[[112.742448,-7.262403],[112.742397,-7.262562],[112.742754,-7.262685],[112.742808,-7.262502],[112.742713,-7.262458],[112.742569,-7.26242],[112.742587,-7.262368],[112.742724,-7.262395],[112.742816,-7.262483],[112.74287,-7.26234],[112.742726,-7.262297],[112.742735,-7.262259],[112.742713,-7.262242],[112.742608,-7.262147],[112.742506,-7.262211],[112.742466,-7.262367],[112.742448,-7.262403]]]},"properties":{"no":6,"type":"building"}},{"type":"Feature","geometry":{"type":"Polygon","coordinates":[[[112.742986,-7.262754],[112.742975,-7.262703],[112.74321,-7.26275],[112.743208,-7.262792],[112.743305,-7.262815],[112.743278,-7.262929],[112.743518,-7.263001],[112.743572,-7.262938],[112.743642,-7.262922],[112.74387,-7.262992],[112.743699,-7.26347],[112.743843,-7.263539],[112.74387,-7.263396],[112.743841,-7.263387],[112.743947,-7.262974],[112.744011,-7.262967],[112.744047,-7.26281],[112.743581,-7.26262],[112.743606,-7.262543],[112.743452,-7.262496],[112.743405,-7.262563],[112.742898,-7.26242],[112.74283,-7.262541],[112.742855,-7.262608],[112.742756,-7.262626],[112.742622,-7.263086],[112.742887,-7.263209],[112.742986,-7.262754]]]},"properties":{"no":7,"type":"building"}},{"type":"Feature","geometry":{"type":"Polygon","coordinates":[[[112.738458,-7.267219],[112.738381,-7.267226],[112.738321,-7.267269],[112.738282,-7.267347],[112.738339,-7.267382],[112.738326,-7.267482],[112.738304,-7.267554],[112.738353,-7.267568],[112.738343,-7.267633],[112.738507,-7.26768],[112.738502,-7.267605],[112.738418,-7.267578],[112.738441,-7.267456],[112.738527,-7.267472],[112.738576,-7.267274],[112.738458,-7.267219]]]},"properties":{"no":8,"type":"building"}},{"type":"Feature","geometry":{"type":"Polygon","coordinates":[[[112.704946,-7.276925],[112.705034,-7.276875],[112.704935,-7.276764],[112.704949,-7.276673],[112.705266,-7.27669],[112.705284,-7.276596],[112.704864,-7.27655],[112.704822,-7.276791],[112.704946,-7.276925]]]},"properties":{"no":9,"type":"building"}},{"type":"Feature","geometry":{"type":"Polygon","coordinates":[[[112.704499,-7.277702],[112.704212,-7.277941],[112.704302,-7.278057],[112.704354,-7.278104],[112.704272,-7.278174],[112.704434,-7.278383],[112.704472,-7.278353],[112.704641,-7.278265],[112.704524,-7.2781],[112.704619,-7.278015],[112.704746,-7.278053],[112.704901,-7.278059],[112.705006,-7.277941],[112.704822,-7.27778],[112.704704,-7.277782],[112.704618,-7.277721],[112.704499,-7.277702]]]},"properties":{"no":0,"type":"building"}},{"type":"Feature","geometry":{"type":"Polygon","coordinates":[[[112.704612,-7.281214],[112.704613,-7.281251],[112.704741,-7.2814],[112.704916,-7.281262],[112.704767,-7.281091],[112.704693,-7.281186],[112.704743,-7.281256],[112.704706,-7.281249],[112.704667,-7.281187],[112.704612,-7.281214]]]},"properties":{"no":1,"type":"building"}},{"type":"Feature","geometry":{"type":"Polygon","coordinates":[[[112.705485,-7.281473],[112.705439,-7.281689],[112.705703,-7.281788],[112.705739,-7.281717],[112.705773,-7.281666],[112.705766,-7.281583],[112.705737,-7.281568],[112.705485,-7.281473]]]},"properties":{"no":2,"type":"building"}},{"type":"Feature","geometry":{"type":"Polygon","coordinates":[[[112.675776,-7.304484],[112.675749,-7.30458],[112.675867,-7.304608],[112.675888,-7.304522],[112.675776,-7.304484]]]},"properties":{"no":3,"type":"building"}},{"type":"Feature","geometry":{"type":"Polygon","coordinates":[[[112.675164,-7.304809],[112.675125,-7.304995],[112.675183,-7.305011],[112.675231,-7.304844],[112.675164,-7.304809]]]},"properties":{"no":4,"type":"building"}},{"type":"Feature","geometry":{"type":"Polygon","coordinates":[[[112.675239,-7.304436],[112.675199,-7.304659],[112.675259,-7.304684],[112.675305,-7.304461],[112.675239,-7.304436]]]},"properties":{"no":5,"type":"building"}},{"type":"Feature","geometry":{"type":"Polygon","coordinates":[[[112.676035,-7.305985],[112.676006,-7.306068],[112.676149,-7.306118],[112.676174,-7.306041],[112.676104,-7.30601],[112.676035,-7.305985]]]},"properties":{"no":6,"type":"building"}},{"type":"Feature","geometry":{"type":"Polygon","coordinates":[[[112.67618,-7.306039],[112.676163,-7.306139],[112.676244,-7.306176],[112.676268,-7.306068],[112.67618,-7.306039]]]},"properties":{"no":7,"type":"building"}},{"type":"Feature","geometry":{"type":"Polygon","coordinates":[[[112.67008,-7.308203],[112.670023,-7.308507],[112.670413,-7.308633],[112.670461,-7.308519],[112.670576,-7.308537],[112.670604,-7.308381],[112.670469,-7.308299],[112.67008,-7.308203]]]},"properties":{"no":8,"type":"building"}},{"type":"Feature","geometry":{"type":"Polygon","coordinates":[[[112.668408,-7.313518],[112.668356,-7.313794],[112.668495,-7.313812],[112.668529,-7.313527],[112.668408,-7.313518]]]},"properties":{"no":9,"type":"building"}},{"type":"Feature","geometry":{"type":"Polygon","coordinates":[[[112.664196,-7.312345],[112.664171,-7.312536],[112.664842,-7.312682],[112.664889,-7.312453],[112.664196,-7.312345]]]},"properties":{"type":"building","no":0}},{"type":"Feature","properties":{"no":1,"type":"building"},"geometry":{"type":"Polygon","coordinates":[[[112.682991,-7.240908],[112.68259,-7.245342],[112.682544,-7.249436],[112.68245,-7.252127],[112.681615,-7.255784],[112.684212,-7.256543],[112.684745,-7.254703],[112.686206,-7.25537],[112.686382,-7.256353],[112.68706,-7.257166],[112.687625,-7.258035],[112.689151,-7.258287],[112.689829,-7.257699],[112.690309,-7.256129],[112.691129,-7.255232],[112.692881,-7.255681],[112.693191,-7.25512],[112.694576,-7.255653],[112.694802,-7.254307],[112.695282,-7.25355],[112.696808,-7.252401],[112.695819,-7.250158],[112.695254,-7.249037],[112.695,-7.247692],[112.693615,-7.24416],[112.691581,-7.243235],[112.685816,-7.241637],[112.682991,-7.240908]]]}},{"type":"Feature","properties":{"no":2,"type":"building"},"geometry":{"type":"Polygon","coordinates":[[[112.678525,-7.258561],[112.677519,-7.263959],[112.678281,-7.26411],[112.679714,-7.264352],[112.680643,-7.264367],[112.681786,-7.264503],[112.683447,-7.264926],[112.683615,-7.263928],[112.68209,-7.26364],[112.683569,-7.263806],[112.683843,-7.261645],[112.682974,-7.261403],[112.681755,-7.261025],[112.681862,-7.260179],[112.683005,-7.260254],[112.684559,-7.260662],[112.685062,-7.259317],[112.683538,-7.259151],[112.680277,-7.258667],[112.678525,-7.258561]]]}},{"type":"Feature","properties":{"no":3,"type":"building"},"geometry":{"type":"Polygon","coordinates":[[[112.677963,-7.258646],[112.677913,-7.258755],[112.677913,-7.259013],[112.677653,-7.259162],[112.677863,-7.259291],[112.677703,-7.259927],[112.677252,-7.260007],[112.676521,-7.263732],[112.677372,-7.263851],[112.678484,-7.258735],[112.677963,-7.258646]]]}},{"type":"Feature","properties":{"no":4,"type":"building"},"geometry":{"type":"Polygon","coordinates":[[[112.687806,-7.26428],[112.687562,-7.268408],[112.687982,-7.268515],[112.689215,-7.268569],[112.689758,-7.268892],[112.690164,-7.268636],[112.689595,-7.267843],[112.689256,-7.26795],[112.687752,-7.26787],[112.687643,-7.267695],[112.688063,-7.267776],[112.689243,-7.267749],[112.689188,-7.267359],[112.6887,-7.267305],[112.688646,-7.267574],[112.688416,-7.267587],[112.688267,-7.267332],[112.687779,-7.267265],[112.68767,-7.26709],[112.688511,-7.26713],[112.688538,-7.26666],[112.687806,-7.266592],[112.687792,-7.266418],[112.688863,-7.266418],[112.688877,-7.265934],[112.687806,-7.266014],[112.687792,-7.265705],[112.688565,-7.265866],[112.68866,-7.265638],[112.688917,-7.265221],[112.687806,-7.265154],[112.687752,-7.264966],[112.689161,-7.2651],[112.689026,-7.26713],[112.689703,-7.266498],[112.689839,-7.264482],[112.687806,-7.26428]]]}},{"type":"Feature","properties":{"no":5,"type":"building"},"geometry":{"type":"Polygon","coordinates":[[[112.711448,-7.234261],[112.711794,-7.23488],[112.712589,-7.234364],[112.712159,-7.233831],[112.711448,-7.234261]]]}},{"type":"Feature","properties":{"no":6,"type":"building"},"geometry":{"type":"Polygon","coordinates":[[[112.71891,-7.265982],[112.718848,-7.266229],[112.71898,-7.266299],[112.718692,-7.267523],[112.719709,-7.267751],[112.720339,-7.267871],[112.72129,-7.268048],[112.722497,-7.268261],[112.722952,-7.268327],[112.72363,-7.267477],[112.723867,-7.26694],[112.721741,-7.266523],[112.720526,-7.266314],[112.71891,-7.265982]]]}},{"type":"Feature","properties":{"no":7,"type":"building"},"geometry":{"type":"Polygon","coordinates":[[[112.724113,-7.265405],[112.722485,-7.265113],[112.721362,-7.264842],[112.719259,-7.264475],[112.71622,-7.263867],[112.713838,-7.263393],[112.712557,-7.263174],[112.712373,-7.264705],[112.713022,-7.264794],[112.715315,-7.265244],[112.717938,-7.265729],[112.721146,-7.266352],[112.723886,-7.266869],[112.724113,-7.265405]]]}},{"type":"Feature","properties":{"no":8,"type":"building"},"geometry":{"type":"Polygon","coordinates":[[[112.72481,-7.275505],[112.725248,-7.275786],[112.725559,-7.275934],[112.725792,-7.275564],[112.725236,-7.275267],[112.725083,-7.275215],[112.72481,-7.275505]]]}},{"type":"Feature","properties":{"no":9,"type":"building"},"geometry":{"type":"Polygon","coordinates":[[[112.724092,-7.275395],[112.724263,-7.275472],[112.724281,-7.275537],[112.724561,-7.275719],[112.724695,-7.275762],[112.724714,-7.275744],[112.725385,-7.276207],[112.725572,-7.275969],[112.725258,-7.27579],[112.72499,-7.27562],[112.724769,-7.275476],[112.724521,-7.275284],[112.724468,-7.275266],[112.724381,-7.275297],[112.724238,-7.275176],[112.724191,-7.27526],[112.724092,-7.275395]]]}},{"type":"Feature","properties":{"no":0,"type":"building"},"geometry":{"type":"Polygon","coordinates":[[[112.724449,-7.274832],[112.724825,-7.275085],[112.725139,-7.275218],[112.725792,-7.275529],[112.725979,-7.27515],[112.7255,-7.274832],[112.724925,-7.274462],[112.724769,-7.274367],[112.724601,-7.274567],[112.724421,-7.274814],[112.724449,-7.274832]]]}}]}