{"type":"FeatureCollection","features":[{"type":"Feature","properties":{"no":1,"type":"hutan"},"geometry":{"type":"Polygon","coordinates":[[[111.796221,-7.468261],[111.795487,-7.470977],[111.796355,-7.472632],[111.79876,-7.473758],[111.8025,-7.472831],[111.804972,-7.472036],[111.805038,-7.468791],[111.807042,-7.467069],[111.806641,-7.464619],[111.799962,-7.468129],[111.802834,-7.46601],[111.806842,-7.464619],[111.808044,-7.46144],[111.805038,-7.458128],[111.802834,-7.456207],[111.8025,-7.454022],[111.802033,-7.451704],[111.801498,-7.449518],[111.799227,-7.44773],[111.798158,-7.451041],[111.796555,-7.452101],[111.794485,-7.448392],[111.789609,-7.450379],[111.794752,-7.453293],[111.794418,-7.4574],[111.791946,-7.462897],[111.796221,-7.468261]]]}},{"type":"Feature","properties":{"no":2,"type":"hutan"},"geometry":{"type":"Polygon","coordinates":[[[111.803324,-7.451473],[111.803724,-7.455646],[111.804526,-7.457235],[111.8082,-7.46101],[111.810537,-7.460944],[111.814612,-7.461275],[111.818887,-7.461275],[111.822494,-7.459884],[111.821425,-7.458825],[111.818887,-7.457301],[111.81361,-7.45909],[111.812341,-7.458957],[111.811807,-7.45803],[111.813009,-7.45697],[111.811807,-7.455248],[111.809335,-7.454321],[111.807799,-7.453261],[111.807131,-7.451672],[111.808467,-7.449354],[111.805862,-7.451407],[111.803324,-7.451473]]]}},{"type":"Feature","properties":{"no":3,"type":"hutan"},"geometry":{"type":"Polygon","coordinates":[[[111.942087,-7.811973],[111.94317,-7.812591],[111.943761,-7.813307],[111.943269,-7.81386],[111.942251,-7.814413],[111.941759,-7.814023],[111.941102,-7.814706],[111.943236,-7.815681],[111.943597,-7.817242],[111.945107,-7.818348],[111.947274,-7.818608],[111.949113,-7.818934],[111.950294,-7.819356],[111.9521,-7.818316],[111.95407,-7.817373],[111.955744,-7.817373],[111.95558,-7.815096],[111.954168,-7.814673],[111.953544,-7.81451],[111.953446,-7.813535],[111.951491,-7.811235],[111.949718,-7.810942],[111.947487,-7.809623],[111.946404,-7.810501],[111.945419,-7.808777],[111.945878,-7.807899],[111.943909,-7.807411],[111.944007,-7.808777],[111.945025,-7.809298],[111.944303,-7.809753],[111.94299,-7.809038],[111.942267,-7.810046],[111.942628,-7.810306],[111.941906,-7.811087],[111.942087,-7.811973]]]}},{"type":"Feature","properties":{"no":4,"type":"hutan"},"geometry":{"type":"Polygon","coordinates":[[[111.951233,-7.809897],[111.953308,-7.81169],[111.954,-7.811084],[111.955145,-7.811795],[111.955571,-7.811875],[111.95565,-7.812428],[111.955438,-7.812929],[111.955624,-7.813509],[111.956316,-7.816489],[111.957966,-7.816726],[111.958764,-7.815513],[111.960042,-7.816858],[111.95935,-7.814168],[111.958365,-7.812639],[111.956103,-7.810609],[111.954586,-7.810161],[111.953947,-7.810187],[111.951233,-7.809897]]]}},{"type":"Feature","properties":{"no":5,"type":"hutan"},"geometry":{"type":"Polygon","coordinates":[[[111.951462,-7.809501],[111.951462,-7.809873],[111.954416,-7.810031],[111.956279,-7.810426],[111.957609,-7.811534],[111.958887,-7.813327],[111.960005,-7.816577],[111.960671,-7.817341],[111.961363,-7.818212],[111.962427,-7.819583],[111.963864,-7.819873],[111.965674,-7.819319],[111.964769,-7.818106],[111.963545,-7.816709],[111.961735,-7.815121],[111.961656,-7.814224],[111.961123,-7.811218],[111.96131,-7.810243],[111.960937,-7.809267],[111.960272,-7.808239],[111.960298,-7.80729],[111.959819,-7.806288],[111.958968,-7.805576],[111.958222,-7.805101],[111.956793,-7.803387],[111.956128,-7.80402],[111.956021,-7.803493],[111.955622,-7.80228],[111.954504,-7.801199],[111.953573,-7.800382],[111.952934,-7.79967],[111.952881,-7.798668],[111.952322,-7.798615],[111.952003,-7.800066],[111.951231,-7.800699],[111.952216,-7.800963],[111.952899,-7.802488],[111.953006,-7.803648],[111.95258,-7.804334],[111.952607,-7.804966],[111.952287,-7.805916],[111.951116,-7.806838],[111.951303,-7.80755],[111.951755,-7.808737],[111.951462,-7.809501]]]}},{"type":"Feature","properties":{"no":6,"type":"hutan"},"geometry":{"type":"Polygon","coordinates":[[[111.953886,-7.800516],[111.954771,-7.800217],[111.95663,-7.801586],[111.958507,-7.802042],[111.959834,-7.802761],[111.959657,-7.803375],[111.958046,-7.802708],[111.956542,-7.802463],[111.955833,-7.801866],[111.957515,-7.804059],[111.958985,-7.805444],[111.960178,-7.806665],[111.960537,-7.808303],[111.961783,-7.811532],[111.961975,-7.814143],[111.965929,-7.818972],[111.96775,-7.817357],[111.967798,-7.815055],[111.966816,-7.810879],[111.968062,-7.809479],[111.972854,-7.809336],[111.971488,-7.807484],[111.970061,-7.80474],[111.96951,-7.802318],[111.969126,-7.800253],[111.968791,-7.799018],[111.967943,-7.797903],[111.96593,-7.797832],[111.9643,-7.798046],[111.961964,-7.798749],[111.960838,-7.797206],[111.958052,-7.797369],[111.958111,-7.798964],[111.956633,-7.799476],[111.955413,-7.799434],[111.953886,-7.800516]]]}},{"type":"Feature","properties":{"no":7,"type":"hutan"},"geometry":{"type":"Polygon","coordinates":[[[111.947049,-7.847043],[111.946533,-7.847062],[111.946376,-7.847062],[111.945868,-7.846802],[111.944836,-7.846871],[111.943944,-7.847114],[111.944224,-7.847305],[111.94455,-7.847819],[111.944305,-7.848304],[111.943448,-7.848685],[111.946139,-7.847944],[111.946507,-7.848516],[111.947136,-7.848516],[111.947888,-7.848221],[111.948553,-7.848204],[111.949637,-7.847909],[111.950109,-7.847251],[111.950284,-7.846489],[111.950267,-7.845934],[111.950809,-7.845432],[111.950896,-7.844704],[111.950774,-7.844201],[111.950931,-7.843387],[111.950424,-7.842452],[111.949427,-7.842434],[111.947888,-7.843682],[111.946909,-7.844427],[111.946174,-7.845865],[111.947049,-7.847043]]]}},{"type":"Feature","properties":{"no":8,"type":"hutan"},"geometry":{"type":"Polygon","coordinates":[[[111.917906,-7.884095],[111.917626,-7.883859],[111.917164,-7.883225],[111.918516,-7.883471],[111.920509,-7.884388],[111.922964,-7.884952],[111.924316,-7.884388],[111.920068,-7.881885],[111.918253,-7.879946],[111.914517,-7.880933],[111.913627,-7.882414],[111.913094,-7.883824],[111.914446,-7.885622],[111.916652,-7.886538],[111.919036,-7.887102],[111.922844,-7.892601],[111.925904,-7.894046],[111.92997,-7.896608],[111.931073,-7.89763],[111.932603,-7.896714],[111.934418,-7.896326],[111.934347,-7.894846],[111.932852,-7.89326],[111.930575,-7.89125],[111.926233,-7.887972],[111.923244,-7.886668],[111.917906,-7.884095]]]}},{"type":"Feature","properties":{"no":9,"type":"hutan"},"geometry":{"type":"Polygon","coordinates":[[[111.818264,-7.972492],[111.818031,-7.973396],[111.817584,-7.974012],[111.818652,-7.975166],[111.819662,-7.975859],[111.820847,-7.977032],[111.821741,-7.977167],[111.82244,-7.977686],[111.823606,-7.977551],[111.822226,-7.976243],[111.821663,-7.97455],[111.821624,-7.973666],[111.819027,-7.971215],[111.817337,-7.970465],[111.815884,-7.969572],[111.81532,-7.969764],[111.814679,-7.970303],[111.814699,-7.971419],[111.815281,-7.971707],[111.815961,-7.971457],[111.816738,-7.971842],[111.817049,-7.972746],[111.817515,-7.972996],[111.817768,-7.972746],[111.818264,-7.972492]]]}},{"type":"Feature","properties":{"no":0,"type":"hutan"},"geometry":{"type":"Polygon","coordinates":[[[111.797914,-7.971349],[111.797139,-7.970521],[111.797118,-7.97129],[111.797398,-7.972486],[111.798024,-7.972615],[111.798348,-7.97332],[111.798606,-7.975499],[111.800136,-7.976712],[111.800956,-7.977695],[111.80197,-7.978165],[111.802897,-7.978336],[111.803566,-7.979169],[111.804602,-7.980301],[111.805724,-7.980408],[111.805206,-7.979404],[111.803911,-7.977802],[111.802142,-7.976306],[111.800956,-7.974981],[111.800136,-7.973657],[111.799855,-7.972375],[111.800028,-7.971264],[111.799855,-7.970452],[111.79923,-7.970473],[111.797914,-7.971349]]]}},{"type":"Feature","properties":{"no":1,"type":"hutan"},"geometry":{"type":"Polygon","coordinates":[[[111.506784,-8.099015],[111.511064,-8.098804],[111.515307,-8.09746],[111.515611,-8.09096],[111.517801,-8.084529],[111.519349,-8.08003],[111.523761,-8.079022],[111.522711,-8.076603],[111.520367,-8.074989],[111.515446,-8.078686],[111.507633,-8.073141],[111.499996,-8.071125],[111.494736,-8.077678],[111.499996,-8.079862],[111.507262,-8.08147],[111.510022,-8.079594],[111.512514,-8.085801],[111.510887,-8.09164],[111.506784,-8.099015]]]}},{"type":"Feature","properties":{"no":2,"type":"hutan"},"geometry":{"type":"Polygon","coordinates":[[[111.388046,-8.020772],[111.38941,-8.02112],[111.390073,-8.020798],[111.391191,-8.021055],[111.39227,-8.020631],[111.39327,-8.020283],[111.3934,-8.019653],[111.393049,-8.019061],[111.394297,-8.017594],[111.394336,-8.016577],[111.393673,-8.016101],[111.393101,-8.016255],[111.392634,-8.016384],[111.392893,-8.017182],[111.392738,-8.01731],[111.39201,-8.016268],[111.391672,-8.015303],[111.390671,-8.014762],[111.389969,-8.014132],[111.389683,-8.014183],[111.390008,-8.015277],[111.390554,-8.016422],[111.390944,-8.016912],[111.391438,-8.016757],[111.391022,-8.017079],[111.391451,-8.017877],[111.39097,-8.018083],[111.390801,-8.018482],[111.390424,-8.01681],[111.389618,-8.015253],[111.388618,-8.014661],[111.389683,-8.017106],[111.38915,-8.01717],[111.387773,-8.016656],[111.387357,-8.015549],[111.387851,-8.014854],[111.387513,-8.014159],[111.386434,-8.013567],[111.386707,-8.012911],[111.387188,-8.012808],[111.386135,-8.012048],[111.385538,-8.012692],[111.384721,-8.013979],[111.384305,-8.014275],[111.384851,-8.015188],[111.385111,-8.01578],[111.385293,-8.016308],[111.385865,-8.016681],[111.386189,-8.016938],[111.386098,-8.01717],[111.386215,-8.017608],[111.386605,-8.017814],[111.386527,-8.018123],[111.38693,-8.018444],[111.387164,-8.018676],[111.386982,-8.019191],[111.386826,-8.01977],[111.387424,-8.019924],[111.38758,-8.020362],[111.388046,-8.020772]]]}},{"type":"Feature","properties":{"no":3,"type":"hutan"},"geometry":{"type":"Polygon","coordinates":[[[111.350039,-8.009989],[111.350694,-8.008468],[111.350493,-8.006814],[111.350466,-8.005437],[111.349678,-8.005384],[111.348916,-8.006072],[111.348662,-8.006893],[111.348221,-8.007197],[111.348502,-8.008203],[111.349059,-8.008907],[111.349259,-8.00978],[111.349393,-8.009913],[111.350039,-8.009989]]]}},{"type":"Feature","properties":{"no":4,"type":"hutan"},"geometry":{"type":"Polygon","coordinates":[[[111.348422,-8.007017],[111.34913,-8.005482],[111.349946,-8.005125],[111.350694,-8.005058],[111.351416,-8.005376],[111.35233,-8.007078],[111.353105,-8.007237],[111.355012,-8.00523],[111.354745,-8.003398],[111.353662,-8.00349],[111.353115,-8.003675],[111.352086,-8.004086],[111.352259,-8.003224],[111.352058,-8.002973],[111.351043,-8.002999],[111.350308,-8.003184],[111.347936,-8.003701],[111.346653,-8.004124],[111.346453,-8.004614],[111.347148,-8.005461],[111.347094,-8.005924],[111.348422,-8.007017]]]}},{"type":"Feature","properties":{"no":5,"type":"hutan"},"geometry":{"type":"Polygon","coordinates":[[[111.346871,-8.003866],[111.349437,-8.003402],[111.350893,-8.002966],[111.35092,-8.002966],[111.351829,-8.002886],[111.352457,-8.002582],[111.352684,-8.002026],[111.352323,-8.001325],[111.351869,-8.001404],[111.350359,-8.001788],[111.349183,-8.001404],[111.347913,-8.001616],[111.346657,-8.001166],[111.346283,-8.001444],[111.346069,-8.002238],[111.346991,-8.003045],[111.346871,-8.003866]]]}},{"type":"Feature","properties":{"no":6,"type":"hutan"},"geometry":{"type":"Polygon","coordinates":[[[111.255104,-7.967701],[111.255075,-7.968874],[111.256175,-7.969572],[111.255978,-7.970437],[111.257021,-7.971471],[111.257501,-7.972364],[111.2586,-7.973342],[111.259531,-7.9727],[111.260744,-7.971638],[111.260039,-7.97094],[111.258882,-7.970968],[111.2586,-7.97027],[111.257783,-7.969348],[111.257472,-7.967924],[111.257247,-7.967142],[111.256485,-7.966779],[111.255104,-7.967701]]]}},{"type":"Feature","properties":{"no":7,"type":"hutan"},"geometry":{"type":"Polygon","coordinates":[[[111.239136,-7.969797],[111.240333,-7.97303],[111.241476,-7.975578],[111.242858,-7.976779],[111.242745,-7.97636],[111.24345,-7.976444],[111.24424,-7.976974],[111.244957,-7.976819],[111.245876,-7.97703],[111.246496,-7.97636],[111.246056,-7.97544],[111.246344,-7.974877],[111.246742,-7.974647],[111.246572,-7.974515],[111.246742,-7.974171],[111.247029,-7.973623],[111.246369,-7.972913],[111.245763,-7.972171],[111.245199,-7.971501],[111.244071,-7.971054],[111.243084,-7.971668],[111.242404,-7.971864],[111.241525,-7.971491],[111.240405,-7.969769],[111.239136,-7.969797]]]}},{"type":"Feature","properties":{"no":8,"type":"hutan"},"geometry":{"type":"Polygon","coordinates":[[[111.23981,-7.967495],[111.240457,-7.969038],[111.241732,-7.97039],[111.244827,-7.970831],[111.247074,-7.96952],[111.248062,-7.967027],[111.247223,-7.966336],[111.244562,-7.966316],[111.241381,-7.966784],[111.240886,-7.966784],[111.23981,-7.967495]]]}},{"type":"Feature","properties":{"no":9,"type":"hutan"},"geometry":{"type":"Polygon","coordinates":[[[111.202029,-7.891497],[111.202475,-7.893232],[111.20277,-7.893196],[111.206294,-7.892911],[111.20739,-7.892268],[111.207123,-7.89159],[111.206179,-7.89047],[111.20481,-7.889913],[111.204104,-7.889991],[111.202872,-7.890398],[111.202864,-7.890819],[111.202029,-7.891497]]]}},{"type":"Feature","properties":{"no":0,"type":"hutan"},"geometry":{"type":"Polygon","coordinates":[[[111.203522,-7.896358],[111.203952,-7.894484],[111.202966,-7.894078],[111.201611,-7.894281],[111.201308,-7.894561],[111.201981,-7.895895],[111.202147,-7.896436],[111.202176,-7.896455],[111.203522,-7.896358]]]}},{"type":"Feature","properties":{"no":1,"type":"hutan"},"geometry":{"type":"Polygon","coordinates":[[[111.206246,-7.87933],[111.20614,-7.880154],[111.206338,-7.881684],[111.206517,-7.882753],[111.207534,-7.88274],[111.209105,-7.883577],[111.21024,-7.884244],[111.211283,-7.884558],[111.213013,-7.882178],[111.213197,-7.881197],[111.212775,-7.879837],[111.212102,-7.879066],[111.21156,-7.878359],[111.211085,-7.877431],[111.209435,-7.876568],[111.207956,-7.877509],[111.206953,-7.877967],[111.206927,-7.87798],[111.20633,-7.878403],[111.206246,-7.87933]]]}},{"type":"Feature","properties":{"no":2,"type":"hutan"},"geometry":{"type":"Polygon","coordinates":[[[111.193863,-7.870681],[111.194454,-7.870675],[111.196403,-7.869703],[111.196681,-7.86927],[111.196835,-7.86893],[111.196329,-7.868562],[111.196116,-7.868269],[111.196276,-7.867876],[111.19627,-7.86715],[111.196228,-7.866705],[111.195484,-7.866016],[111.195194,-7.866718],[111.195112,-7.867281],[111.194911,-7.86813],[111.194438,-7.868036],[111.194171,-7.868048],[111.194473,-7.868511],[111.194733,-7.868769],[111.194556,-7.869103],[111.194343,-7.869782],[111.193863,-7.870681]]]}},{"type":"Feature","properties":{"no":3,"type":"hutan"},"geometry":{"type":"Polygon","coordinates":[[[111.357558,-7.784635],[111.361476,-7.790817],[111.363169,-7.794196],[111.366045,-7.795422],[111.370857,-7.797746],[111.374824,-7.799663],[111.375791,-7.796788],[111.375839,-7.795614],[111.377121,-7.794152],[111.37775,-7.792762],[111.374364,-7.791972],[111.372574,-7.789815],[111.370495,-7.788234],[111.36723,-7.787683],[111.357558,-7.784635]]]}},{"type":"Feature","properties":{"no":4,"type":"hutan"},"geometry":{"type":"Polygon","coordinates":[[[111.360556,-7.785096],[111.35787,-7.784499],[111.360022,-7.785481],[111.365076,-7.787063],[111.367471,-7.787518],[111.371595,-7.78874],[111.373361,-7.788069],[111.377496,-7.78771],[111.381317,-7.788189],[111.384655,-7.787662],[111.388137,-7.786727],[111.391233,-7.785577],[111.391305,-7.784667],[111.387629,-7.783612],[111.385012,-7.785118],[111.382218,-7.783407],[111.381299,-7.782425],[111.378711,-7.782664],[111.377374,-7.783261],[111.375343,-7.783237],[111.373771,-7.782255],[111.372295,-7.783213],[111.367955,-7.783261],[111.366311,-7.783466],[111.364449,-7.783682],[111.363022,-7.784688],[111.360556,-7.785096]]]}},{"type":"Feature","properties":{"no":5,"type":"hutan"},"geometry":{"type":"Polygon","coordinates":[[[111.335975,-7.53312],[111.33859,-7.534594],[111.339306,-7.534703],[111.342829,-7.531156],[111.343517,-7.530146],[111.343655,-7.529136],[111.342196,-7.52829],[111.341287,-7.529082],[111.339168,-7.529464],[111.338205,-7.529518],[111.335975,-7.53312]]]}},{"type":"Feature","properties":{"no":6,"type":"hutan"},"geometry":{"type":"Polygon","coordinates":[[[111.338281,-7.529087],[111.338213,-7.529517],[111.340901,-7.529159],[111.342301,-7.528308],[111.343927,-7.52889],[111.343475,-7.530592],[111.339658,-7.533973],[111.339975,-7.535384],[111.342459,-7.535048],[111.346841,-7.532988],[111.351675,-7.531416],[111.350839,-7.531416],[111.349484,-7.531013],[111.348964,-7.529826],[111.348874,-7.528684],[111.349506,-7.527744],[111.349303,-7.526803],[111.347406,-7.526422],[111.347112,-7.527184],[111.344469,-7.527184],[111.342098,-7.527318],[111.338439,-7.526982],[111.336677,-7.526893],[111.335706,-7.527184],[111.33496,-7.528124],[111.333853,-7.529624],[111.332995,-7.530363],[111.332769,-7.53099],[111.332182,-7.531595],[111.334079,-7.532177],[111.335073,-7.531483],[111.335751,-7.530632],[111.336654,-7.529221],[111.337964,-7.528326],[111.33889,-7.528191],[111.338281,-7.529087]]]}},{"type":"Feature","properties":{"no":7,"type":"hutan"},"geometry":{"type":"Polygon","coordinates":[[[111.342351,-7.520054],[111.344501,-7.519779],[111.345335,-7.519632],[111.34578,-7.519944],[111.347355,-7.519613],[111.348337,-7.519779],[111.34906,-7.518915],[111.34893,-7.518033],[111.349005,-7.5166],[111.3483,-7.514964],[111.346799,-7.515369],[111.34641,-7.516214],[111.344482,-7.518823],[111.342351,-7.520054]]]}},{"type":"Feature","properties":{"no":8,"type":"hutan"},"geometry":{"type":"Polygon","coordinates":[[[111.323521,-7.505215],[111.32419,-7.506313],[111.325561,-7.50764],[111.328401,-7.508455],[111.32907,-7.50652],[111.329355,-7.50615],[111.32896,-7.505378],[111.329893,-7.505258],[111.329728,-7.504519],[111.328785,-7.504813],[111.327688,-7.50478],[111.326592,-7.504552],[111.325747,-7.504595],[111.323521,-7.505215]]]}},{"type":"Feature","properties":{"no":9,"type":"hutan"},"geometry":{"type":"Polygon","coordinates":[[[111.34271,-7.519494],[111.345562,-7.516845],[111.347732,-7.514634],[111.349339,-7.511606],[111.350423,-7.50715],[111.350704,-7.50462],[111.350262,-7.504222],[111.343964,-7.506492],[111.341815,-7.506393],[111.34079,-7.506253],[111.34011,-7.510577],[111.340874,-7.513106],[111.341154,-7.51736],[111.340692,-7.51969],[111.34029,-7.521124],[111.34271,-7.519494]]]}},{"type":"Feature","properties":{"no":0,"type":"hutan"},"geometry":{"type":"Polygon","coordinates":[[[111.252611,-7.483891],[111.257319,-7.48149],[111.260302,-7.476821],[111.267216,-7.473744],[111.26222,-7.472949],[111.261826,-7.473894],[111.260509,-7.47421],[111.259661,-7.473699],[111.259646,-7.472784],[111.260222,-7.471763],[111.258486,-7.46833],[111.257956,-7.469081],[111.25735,-7.469967],[111.256578,-7.470807],[111.256245,-7.471333],[111.256381,-7.472398],[111.2562,-7.473795],[111.2557,-7.47495],[111.254368,-7.476726],[111.253021,-7.478123],[111.252219,-7.478753],[111.252124,-7.480668],[111.252275,-7.482499],[111.252611,-7.483891]]]}},{"type":"Feature","properties":{"no":1,"type":"hutan"},"geometry":{"type":"Polygon","coordinates":[[[111.252693,-7.484156],[111.252993,-7.487598],[111.250346,-7.490692],[111.247724,-7.492846],[111.246233,-7.494328],[111.246108,-7.496036],[111.24406,-7.497645],[111.24803,-7.498809],[111.250677,-7.498834],[111.252775,-7.496655],[111.254748,-7.495788],[111.256696,-7.493956],[111.258369,-7.491481],[111.259967,-7.490564],[111.259467,-7.489624],[111.258369,-7.489475],[111.258369,-7.487767],[111.26144,-7.485217],[111.262787,-7.484125],[111.262887,-7.482046],[111.262262,-7.481526],[111.262562,-7.48051],[111.263336,-7.479273],[111.265768,-7.47632],[111.267666,-7.474686],[111.267341,-7.474017],[111.260674,-7.476766],[111.257652,-7.481198],[111.254331,-7.482931],[111.252693,-7.484156]]]}},{"type":"Feature","properties":{"no":2,"type":"hutan"},"geometry":{"type":"Polygon","coordinates":[[[111.234581,-7.417584],[111.235357,-7.417941],[111.23642,-7.418568],[111.23701,-7.417998],[111.236909,-7.417598],[111.235688,-7.417328],[111.235443,-7.416743],[111.235026,-7.417199],[111.234581,-7.417584]]]}},{"type":"Feature","properties":{"no":3,"type":"hutan"},"geometry":{"type":"Polygon","coordinates":[[[111.239066,-7.421461],[111.23898,-7.42186],[111.238908,-7.422259],[111.239368,-7.422558],[111.239037,-7.423199],[111.23931,-7.423684],[111.23908,-7.424724],[111.239037,-7.425921],[111.239799,-7.42642],[111.240029,-7.426847],[111.240618,-7.426648],[111.241394,-7.42632],[111.241681,-7.42595],[111.241538,-7.425323],[111.241926,-7.424439],[111.242113,-7.423484],[111.241796,-7.42213],[111.241566,-7.421717],[111.241595,-7.421261],[111.240489,-7.421233],[111.239066,-7.421461]]]}},{"type":"Feature","properties":{"no":4,"type":"hutan"},"geometry":{"type":"Polygon","coordinates":[[[111.292221,-7.422658],[111.292613,-7.423259],[111.29224,-7.423944],[111.292221,-7.424286],[111.293928,-7.426155],[111.295458,-7.424536],[111.293602,-7.423268],[111.292799,-7.422815],[111.292221,-7.422658]]]}},{"type":"Feature","properties":{"no":5,"type":"hutan"},"geometry":{"type":"Polygon","coordinates":[[[111.295699,-7.380936],[111.297027,-7.381166],[111.298438,-7.381874],[111.298678,-7.382063],[111.299284,-7.381668],[111.298811,-7.380796],[111.297467,-7.379866],[111.297292,-7.37966],[111.297599,-7.379602],[111.298031,-7.379257],[111.298114,-7.378763],[111.298504,-7.37873],[111.298703,-7.378516],[111.298238,-7.377932],[111.297143,-7.378689],[111.296653,-7.379068],[111.296272,-7.379644],[111.295973,-7.380203],[111.295699,-7.380936]]]}},{"type":"Feature","properties":{"no":6,"type":"hutan"},"geometry":{"type":"Polygon","coordinates":[[[111.28841,-7.360759],[111.285649,-7.361161],[111.284143,-7.361462],[111.285649,-7.363247],[111.286175,-7.363788],[111.287702,-7.36422],[111.288238,-7.36102],[111.28841,-7.360759]]]}},{"type":"Feature","properties":{"no":7,"type":"hutan"},"geometry":{"type":"Polygon","coordinates":[[[111.285433,-7.335577],[111.285147,-7.336792],[111.284871,-7.337186],[111.285737,-7.338091],[111.287046,-7.338639],[111.286917,-7.33778],[111.28747,-7.337917],[111.287581,-7.336994],[111.288152,-7.336957],[111.29018,-7.337542],[111.291046,-7.338813],[111.292466,-7.338712],[111.291811,-7.337734],[111.291129,-7.337103],[111.291341,-7.335961],[111.29029,-7.335558],[111.288429,-7.335714],[111.285433,-7.335577]]]}},{"type":"Feature","properties":{"no":8,"type":"hutan"},"geometry":{"type":"Polygon","coordinates":[[[111.439287,-7.313575],[111.439198,-7.312959],[111.440383,-7.312804],[111.441586,-7.312855],[111.442056,-7.314463],[111.447528,-7.312833],[111.4483,-7.31071],[111.448492,-7.30912],[111.447725,-7.307737],[111.446906,-7.30587],[111.445808,-7.305334],[111.444082,-7.304193],[111.44288,-7.303207],[111.441782,-7.303225],[111.440056,-7.30383],[111.437915,-7.305931],[111.438037,-7.306173],[111.438717,-7.306536],[111.440315,-7.306938],[111.4396,-7.30699],[111.438084,-7.307214],[111.43737,-7.309633],[111.436882,-7.310688],[111.436812,-7.311587],[111.43723,-7.312503],[111.437753,-7.312503],[111.438136,-7.313074],[111.437526,-7.313039],[111.437805,-7.313558],[111.43852,-7.314042],[111.439287,-7.313575]]]}},{"type":"Feature","properties":{"no":9,"type":"hutan"},"geometry":{"type":"Polygon","coordinates":[[[111.471652,-7.297726],[111.472587,-7.297783],[111.473052,-7.297168],[111.475114,-7.296153],[111.476106,-7.295753],[111.477145,-7.294938],[111.479052,-7.293354],[111.47916,-7.291801],[111.479346,-7.289787],[111.479098,-7.288142],[111.47868,-7.286496],[111.478354,-7.28582],[111.475667,-7.283073],[111.474799,-7.282904],[111.474365,-7.283381],[111.473203,-7.284888],[111.471993,-7.285795],[111.468834,-7.286923],[111.469021,-7.288215],[111.469718,-7.289522],[111.470865,-7.289814],[111.471156,-7.290822],[111.470443,-7.294067],[111.470738,-7.294928],[111.471746,-7.295543],[111.471652,-7.297726]]]}},{"type":"Feature","properties":{"no":0,"type":"hutan"},"geometry":{"type":"Polygon","coordinates":[[[111.503303,-7.31276],[111.502622,-7.312848],[111.5019,-7.313483],[111.502281,-7.31374],[111.502397,-7.31397],[111.502145,-7.31401],[111.502227,-7.314389],[111.502711,-7.314868],[111.503256,-7.315152],[111.503671,-7.315342],[111.504107,-7.315179],[111.504182,-7.314821],[111.504319,-7.314186],[111.504285,-7.313652],[111.50391,-7.313361],[111.503303,-7.31276]]]}},{"type":"Feature","properties":{"no":1,"type":"hutan"},"geometry":{"type":"Polygon","coordinates":[[[111.589912,-7.214815],[111.592475,-7.214688],[111.594696,-7.214625],[111.597237,-7.214603],[111.597728,-7.213968],[111.597386,-7.212951],[111.596148,-7.21096],[111.593457,-7.206828],[111.59051,-7.206617],[111.590062,-7.209794],[111.590211,-7.21168],[111.588909,-7.213248],[111.589912,-7.214815]]]}},{"type":"Feature","properties":{"no":2,"type":"hutan"},"geometry":{"type":"Polygon","coordinates":[[[111.59821,-7.213795],[111.600046,-7.213922],[111.601584,-7.21424],[111.60152,-7.210172],[111.600836,-7.208286],[111.601648,-7.205914],[111.596608,-7.205744],[111.593192,-7.205554],[111.593192,-7.206253],[111.59821,-7.213795]]]}},{"type":"Feature","properties":{"no":3,"type":"hutan"},"geometry":{"type":"Polygon","coordinates":[[[111.685415,-7.437917],[111.688011,-7.436409],[111.689088,-7.434777],[111.6857,-7.433929],[111.68323,-7.434902],[111.679081,-7.437477],[111.67487,-7.439424],[111.675123,-7.441685],[111.67639,-7.443129],[111.678353,-7.442627],[111.680791,-7.440837],[111.685415,-7.437917]]]}},{"type":"Feature","properties":{"no":4,"type":"hutan"},"geometry":{"type":"Polygon","coordinates":[[[111.685309,-7.424343],[111.684354,-7.42744],[111.685526,-7.42787],[111.688649,-7.427569],[111.690255,-7.425246],[111.689821,-7.423611],[111.685309,-7.424343]]]}},{"type":"Feature","properties":{"no":5,"type":"hutan"},"geometry":{"type":"Polygon","coordinates":[[[111.702033,-7.835919],[111.698713,-7.844184],[111.699086,-7.846153],[111.707127,-7.845273],[111.71309,-7.84275],[111.716942,-7.844411],[111.721166,-7.842996],[111.72365,-7.838811],[111.725079,-7.826873],[111.723402,-7.826996],[111.71601,-7.826688],[111.710668,-7.826319],[111.706506,-7.829703],[111.702033,-7.835919]]]}},{"type":"Feature","properties":{"no":6,"type":"hutan"},"geometry":{"type":"Polygon","coordinates":[[[111.672057,-7.81685],[111.68063,-7.814265],[111.686655,-7.812234],[111.692743,-7.807434],[111.695414,-7.800541],[111.692494,-7.796603],[111.689575,-7.78854],[111.686345,-7.78934],[111.681375,-7.786878],[111.678145,-7.785647],[111.673486,-7.788725],[111.672803,-7.791925],[111.677834,-7.79094],[111.682928,-7.792171],[111.6774,-7.791556],[111.6733,-7.791802],[111.669511,-7.792479],[111.667026,-7.794448],[111.666218,-7.798141],[111.668153,-7.804101],[111.669945,-7.80854],[111.667121,-7.810047],[111.665465,-7.812307],[111.667176,-7.815858],[111.672057,-7.81685]]]}},{"type":"Feature","properties":{"no":7,"type":"hutan"},"geometry":{"type":"Polygon","coordinates":[[[111.834884,-7.896999],[111.838975,-7.894541],[111.842865,-7.891984],[111.835555,-7.886271],[111.834884,-7.896999]]]}},{"type":"Feature","properties":{"no":8,"type":"hutan"},"geometry":{"type":"Polygon","coordinates":[[[111.820644,-7.888413],[111.818465,-7.89386],[111.82165,-7.902196],[111.828859,-7.901599],[111.828927,-7.889077],[111.820644,-7.888413]]]}},{"type":"Feature","properties":{"no":9,"type":"hutan"},"geometry":{"type":"Polygon","coordinates":[[[111.784887,-7.880496],[111.782741,-7.888169],[111.78824,-7.89262],[111.793136,-7.885645],[111.784887,-7.880496]]]}},{"type":"Feature","properties":{"no":0,"type":"hutan"},"geometry":{"type":"Polygon","coordinates":[[[111.754591,-7.872268],[111.748283,-7.886114],[111.766618,-7.894791],[111.771429,-7.879686],[111.754591,-7.872268]]]}}]}