{"type":"FeatureCollection","features":[{"type":"Feature","properties":{"type":"mangrove","no":1},"geometry":{"type":"Polygon","coordinates":[[[112.708303,-7.167057],[112.708263,-7.167458],[112.709017,-7.168023],[112.709822,-7.168326],[112.710501,-7.168595],[112.710917,-7.168774],[112.711125,-7.168568],[112.710654,-7.168303],[112.708303,-7.167057]]]}},{"type":"Feature","properties":{"type":"mangrove","no":2},"geometry":{"type":"Polygon","coordinates":[[[112.711124,-7.168566],[112.71094,-7.168768],[112.711387,-7.16899],[112.711768,-7.169095],[112.712761,-7.169489],[112.713111,-7.16922],[112.712569,-7.169142],[112.712019,-7.168971],[112.711627,-7.168846],[112.711124,-7.168566]]]}},{"type":"Feature","properties":{"type":"mangrove","no":3},"geometry":{"type":"Polygon","coordinates":[[[112.680198,-7.04013],[112.680405,-7.040032],[112.680343,-7.039692],[112.680556,-7.039219],[112.680468,-7.038498],[112.680322,-7.038555],[112.680317,-7.039178],[112.680172,-7.039697],[112.680198,-7.04013]]]}},{"type":"Feature","properties":{"type":"mangrove","no":4},"geometry":{"type":"Polygon","coordinates":[[[112.68028,-7.038526],[112.680366,-7.038534],[112.68054,-7.038453],[112.680595,-7.038179],[112.680625,-7.037816],[112.680518,-7.037132],[112.680671,-7.036588],[112.680288,-7.036398],[112.680258,-7.03685],[112.680327,-7.037026],[112.680144,-7.037221],[112.680212,-7.037432],[112.680029,-7.038217],[112.680072,-7.038467],[112.680127,-7.038458],[112.68028,-7.038526]]]}},{"type":"Feature","properties":{"type":"mangrove","no":5},"geometry":{"type":"Polygon","coordinates":[[[112.680314,-7.036395],[112.680685,-7.036559],[112.680792,-7.036282],[112.680711,-7.036104],[112.680801,-7.035871],[112.68076,-7.035727],[112.681035,-7.035022],[112.681225,-7.034947],[112.681346,-7.034861],[112.681436,-7.034895],[112.681687,-7.03458],[112.681456,-7.034276],[112.681087,-7.034303],[112.681008,-7.034389],[112.680942,-7.034686],[112.680815,-7.034714],[112.68077,-7.034796],[112.680763,-7.034998],[112.680493,-7.03535],[112.680641,-7.035481],[112.68041,-7.03596],[112.680348,-7.036117],[112.680314,-7.036395]]]}},{"type":"Feature","properties":{"type":"mangrove","no":6},"geometry":{"type":"Polygon","coordinates":[[[112.708605,-7.04375],[112.708598,-7.043798],[112.708615,-7.043835],[112.70862,-7.043838],[112.708734,-7.043825],[112.708938,-7.043818],[112.709081,-7.04377],[112.709282,-7.043683],[112.709486,-7.043491],[112.709625,-7.043263],[112.709522,-7.043118],[112.709197,-7.043236],[112.708915,-7.043433],[112.708678,-7.043663],[112.708605,-7.04375]]]}},{"type":"Feature","properties":{"type":"mangrove","no":7},"geometry":{"type":"Polygon","coordinates":[[[112.757756,-7.196786],[112.757765,-7.197593],[112.757659,-7.19777],[112.758383,-7.197707],[112.758443,-7.197413],[112.759396,-7.197228],[112.759366,-7.197013],[112.759557,-7.196933],[112.759938,-7.196967],[112.760023,-7.197303],[112.761494,-7.197136],[112.761561,-7.197149],[112.761553,-7.196733],[112.761661,-7.196662],[112.762309,-7.19672],[112.762217,-7.19571],[112.761057,-7.195816],[112.76007,-7.195958],[112.759654,-7.196008],[112.758989,-7.196214],[112.758595,-7.196555],[112.758266,-7.19669],[112.758144,-7.196867],[112.758173,-7.197016],[112.75813,-7.197116],[112.758051,-7.19723],[112.757929,-7.197194],[112.757872,-7.196825],[112.757756,-7.196786]]]}},{"type":"Feature","properties":{"type":"mangrove","no":8},"geometry":{"type":"Polygon","coordinates":[[[112.775706,-7.207421],[112.77583,-7.207635],[112.775538,-7.208225],[112.775808,-7.208414],[112.775849,-7.208295],[112.775915,-7.20831],[112.775912,-7.208423],[112.77628,-7.20864],[112.776413,-7.20865],[112.776454,-7.208612],[112.776612,-7.208709],[112.77679,-7.208543],[112.77691,-7.208213],[112.776752,-7.208034],[112.776745,-7.207886],[112.776856,-7.207757],[112.776346,-7.20743],[112.776251,-7.207173],[112.77583,-7.207264],[112.775773,-7.207308],[112.775706,-7.207421]]]}},{"type":"Feature","properties":{"type":"mangrove","no":9},"geometry":{"type":"Polygon","coordinates":[[[112.801802,-7.247637],[112.802025,-7.248377],[112.80226,-7.24852],[112.802573,-7.248598],[112.802808,-7.248723],[112.803331,-7.249064],[112.804011,-7.248484],[112.804361,-7.248526],[112.804541,-7.248413],[112.804776,-7.247983],[112.804667,-7.247845],[112.803819,-7.247708],[112.80285,-7.247278],[112.801802,-7.247637]]]}},{"type":"Feature","properties":{"type":"mangrove","no":0},"geometry":{"type":"Polygon","coordinates":[[[112.804024,-7.249981],[112.804089,-7.252511],[112.805449,-7.252486],[112.805637,-7.252187],[112.806134,-7.251743],[112.806614,-7.251856],[112.806826,-7.251387],[112.806728,-7.251113],[112.805922,-7.249181],[112.805278,-7.24809],[112.805107,-7.248543],[112.804024,-7.249981]]]}},{"type":"Feature","properties":{"type":"mangrove","no":1},"geometry":{"type":"Polygon","coordinates":[[[112.821777,-7.259268],[112.823378,-7.26213],[112.823726,-7.26207],[112.826128,-7.260916],[112.827578,-7.263509],[112.831294,-7.261755],[112.831536,-7.260826],[112.831445,-7.258758],[112.829784,-7.258114],[112.828077,-7.256855],[112.824723,-7.254667],[112.821777,-7.259268]]]}},{"type":"Feature","properties":{"type":"mangrove","no":2},"geometry":{"type":"Polygon","coordinates":[[[112.840091,-7.274418],[112.839122,-7.275388],[112.839553,-7.276503],[112.841623,-7.275913],[112.84146,-7.275],[112.841158,-7.274652],[112.840091,-7.274418]]]}},{"type":"Feature","properties":{"type":"mangrove","no":3},"geometry":{"type":"Polygon","coordinates":[[[112.844407,-7.297805],[112.845131,-7.299163],[112.845245,-7.299119],[112.845349,-7.298834],[112.845681,-7.298652],[112.84603,-7.298167],[112.845899,-7.297622],[112.846082,-7.296046],[112.846213,-7.295699],[112.846292,-7.294861],[112.846092,-7.293191],[112.845978,-7.292733],[112.846044,-7.291756],[112.846192,-7.290752],[112.846349,-7.289362],[112.84655,-7.288644],[112.846506,-7.288384],[112.846524,-7.287865],[112.846689,-7.286861],[112.846262,-7.285996],[112.845878,-7.286091],[112.845206,-7.286342],[112.845477,-7.288531],[112.845948,-7.288402],[112.846204,-7.289174],[112.845847,-7.289364],[112.845917,-7.290212],[112.84576,-7.290359],[112.845811,-7.291546],[112.844538,-7.29171],[112.844651,-7.293043],[112.844878,-7.293078],[112.845262,-7.294915],[112.845514,-7.294924],[112.845619,-7.29752],[112.844407,-7.297805]]]}},{"type":"Feature","properties":{"type":"mangrove","no":4},"geometry":{"type":"Polygon","coordinates":[[[112.844409,-7.299677],[112.845517,-7.301824],[112.845689,-7.301634],[112.846103,-7.300757],[112.846204,-7.300087],[112.846033,-7.299418],[112.845791,-7.299253],[112.845071,-7.299279],[112.844409,-7.299677]]]}},{"type":"Feature","properties":{"type":"mangrove","no":5},"geometry":{"type":"Polygon","coordinates":[[[112.84487,-7.303364],[112.843256,-7.305051],[112.842503,-7.305702],[112.841362,-7.306983],[112.840254,-7.30821],[112.838651,-7.308264],[112.837219,-7.308082],[112.836853,-7.308573],[112.835973,-7.308595],[112.834638,-7.308296],[112.832325,-7.307954],[112.831593,-7.307879],[112.829871,-7.307474],[112.829624,-7.307794],[112.833056,-7.30853],[112.835305,-7.309064],[112.836532,-7.309374],[112.837985,-7.309747],[112.838695,-7.309929],[112.839214,-7.310026],[112.839795,-7.309813],[112.840638,-7.308707],[112.840929,-7.308109],[112.841295,-7.30726],[112.842522,-7.305968],[112.843931,-7.304789],[112.84505,-7.303455],[112.84487,-7.303364]]]}},{"type":"Feature","properties":{"type":"mangrove","no":6},"geometry":{"type":"Polygon","coordinates":[[[112.828827,-7.384382],[112.828629,-7.385576],[112.829905,-7.385665],[112.829869,-7.386769],[112.830174,-7.386805],[112.830156,-7.389068],[112.835331,-7.389068],[112.836085,-7.389175],[112.836211,-7.388765],[112.835834,-7.388498],[112.836157,-7.388266],[112.835977,-7.387838],[112.836103,-7.386805],[112.836283,-7.386752],[112.835169,-7.384809],[112.834342,-7.384061],[112.831468,-7.383972],[112.830821,-7.384275],[112.829959,-7.384275],[112.828827,-7.384382]]]}},{"type":"Feature","properties":{"type":"mangrove","no":7},"geometry":{"type":"Polygon","coordinates":[[[112.891349,-7.618816],[112.891606,-7.618889],[112.891615,-7.618866],[112.891748,-7.618771],[112.891808,-7.618684],[112.892368,-7.619007],[112.892171,-7.619412],[112.892846,-7.619845],[112.893025,-7.619745],[112.893328,-7.619089],[112.893277,-7.619035],[112.893208,-7.618916],[112.893084,-7.61863],[112.892859,-7.618434],[112.8924,-7.618084],[112.892001,-7.61792],[112.891666,-7.618165],[112.891445,-7.618534],[112.891349,-7.618816]]]}},{"type":"Feature","properties":{"type":"mangrove","no":8},"geometry":{"type":"Polygon","coordinates":[[[112.893814,-7.619161],[112.893543,-7.619871],[112.895242,-7.62089],[112.895655,-7.621286],[112.895779,-7.621222],[112.89599,-7.621386],[112.8961,-7.621327],[112.896146,-7.621404],[112.896137,-7.621518],[112.896164,-7.621582],[112.896109,-7.621673],[112.896128,-7.621723],[112.896357,-7.6215],[112.896344,-7.621404],[112.896018,-7.620908],[112.895453,-7.620289],[112.895072,-7.620021],[112.894218,-7.619384],[112.893814,-7.619161]]]}},{"type":"Feature","properties":{"type":"mangrove","no":9},"geometry":{"type":"Polygon","coordinates":[[[112.902715,-7.625305],[112.902228,-7.626087],[112.902388,-7.626144],[112.902443,-7.626079],[112.902562,-7.626141],[112.90257,-7.626299],[112.902907,-7.626457],[112.903176,-7.626684],[112.903296,-7.626634],[112.903492,-7.626274],[112.903681,-7.626025],[112.903478,-7.62596],[112.903311,-7.625845],[112.903035,-7.625618],[112.902715,-7.625305]]]}},{"type":"Feature","properties":{"type":"mangrove","no":0},"geometry":{"type":"Polygon","coordinates":[[[112.903916,-7.626105],[112.903549,-7.626559],[112.903488,-7.626794],[112.904435,-7.627183],[112.904501,-7.627109],[112.904642,-7.627084],[112.905025,-7.626454],[112.903916,-7.626105]]]}},{"type":"Feature","properties":{"type":"mangrove","no":1},"geometry":{"type":"Polygon","coordinates":[[[112.907855,-7.62729],[112.907696,-7.627789],[112.90752,-7.628251],[112.908302,-7.628619],[112.908573,-7.627503],[112.907855,-7.62729]]]}},{"type":"Feature","properties":{"type":"mangrove","no":2},"geometry":{"type":"Polygon","coordinates":[[[112.909977,-7.627919],[112.909568,-7.629091],[112.90991,-7.629201],[112.910043,-7.628773],[112.910176,-7.628746],[112.910369,-7.628384],[112.911674,-7.628258],[112.911768,-7.6281],[112.912442,-7.628412],[112.912945,-7.628231],[112.913973,-7.628209],[112.914172,-7.628067],[112.914697,-7.628115],[112.915598,-7.627682],[112.915719,-7.627491],[112.917073,-7.627754],[112.91735,-7.626636],[112.915913,-7.626954],[112.915266,-7.627129],[112.914144,-7.627496],[112.913204,-7.627655],[112.912433,-7.62782],[112.911754,-7.62793],[112.911029,-7.62793],[112.909977,-7.627919]]]}},{"type":"Feature","properties":{"no":3,"type":"mangrove"},"geometry":{"type":"Polygon","coordinates":[[[112.947572,-7.618084],[112.947584,-7.619463],[112.947781,-7.620004],[112.947839,-7.621441],[112.950565,-7.622407],[112.950229,-7.623051],[112.952247,-7.623844],[112.95227,-7.622097],[112.951423,-7.621809],[112.950843,-7.621338],[112.950379,-7.621073],[112.949881,-7.620452],[112.947572,-7.618084]]]}},{"type":"Feature","properties":{"no":4,"type":"mangrove"},"geometry":{"type":"Polygon","coordinates":[[[113.214456,-7.733785],[113.214051,-7.733879],[113.213503,-7.734375],[113.212968,-7.735125],[113.212516,-7.735845],[113.212307,-7.736133],[113.212238,-7.736582],[113.212259,-7.736827],[113.212555,-7.736741],[113.212468,-7.736396],[113.212577,-7.736323],[113.212472,-7.736099],[113.213277,-7.735832],[113.213373,-7.735952],[113.213612,-7.735896],[113.213586,-7.735655],[113.213768,-7.73553],[113.214303,-7.735483],[113.214456,-7.733785]]]}},{"type":"Feature","properties":{"no":5,"type":"mangrove"},"geometry":{"type":"Polygon","coordinates":[[[114.374381,-7.752223],[114.37448,-7.752469],[114.37448,-7.752651],[114.3746,-7.752806],[114.374827,-7.752883],[114.375607,-7.752258],[114.375812,-7.75204],[114.375515,-7.751956],[114.375181,-7.751942],[114.374933,-7.752019],[114.374607,-7.752125],[114.374381,-7.752223]]]}},{"type":"Feature","properties":{"no":6,"type":"mangrove"},"geometry":{"type":"Polygon","coordinates":[[[114.366782,-7.753868],[114.36683,-7.753863],[114.366996,-7.753753],[114.366973,-7.753753],[114.367324,-7.753474],[114.36776,-7.753451],[114.368352,-7.753576],[114.369225,-7.753747],[114.370632,-7.753895],[114.371419,-7.754009],[114.371919,-7.754186],[114.372356,-7.75451],[114.372873,-7.754237],[114.37231,-7.753844],[114.371378,-7.753617],[114.371516,-7.753236],[114.372384,-7.752627],[114.372401,-7.752359],[114.372177,-7.752217],[114.371022,-7.751966],[114.369976,-7.751944],[114.369413,-7.752245],[114.368833,-7.752638],[114.368443,-7.752741],[114.368075,-7.753167],[114.367765,-7.753315],[114.367322,-7.753327],[114.366909,-7.753429],[114.366759,-7.753577],[114.366696,-7.753811],[114.366782,-7.753868]]]}},{"type":"Feature","properties":{"no":7,"type":"mangrove"},"geometry":{"type":"Polygon","coordinates":[[[114.442001,-7.796264],[114.442338,-7.796181],[114.442768,-7.795538],[114.442995,-7.79487],[114.442852,-7.794102],[114.442287,-7.793317],[114.442135,-7.792423],[114.441984,-7.792473],[114.441857,-7.792807],[114.441621,-7.792791],[114.441503,-7.792122],[114.441183,-7.791722],[114.440281,-7.790902],[114.439624,-7.790476],[114.438883,-7.789793],[114.438588,-7.789433],[114.438074,-7.7894],[114.437619,-7.789308],[114.437038,-7.789166],[114.436726,-7.789208],[114.436692,-7.789408],[114.436945,-7.789876],[114.436987,-7.790018],[114.437156,-7.789934],[114.437316,-7.789951],[114.437366,-7.790436],[114.437147,-7.790419],[114.437038,-7.790569],[114.437029,-7.790669],[114.437054,-7.790828],[114.437223,-7.790803],[114.437644,-7.790628],[114.438614,-7.790344],[114.439052,-7.790269],[114.439768,-7.790753],[114.440291,-7.791112],[114.44062,-7.791538],[114.440678,-7.791785],[114.440973,-7.792194],[114.441125,-7.792871],[114.441309,-7.793456],[114.44152,-7.79369],[114.441705,-7.79425],[114.441764,-7.794826],[114.44188,-7.795484],[114.441973,-7.795918],[114.441998,-7.79606],[114.442001,-7.796264]]]}},{"type":"Feature","properties":{"no":8,"type":"mangrove"},"geometry":{"type":"Polygon","coordinates":[[[114.458152,-7.847207],[114.458309,-7.847264],[114.458732,-7.84733],[114.459059,-7.847424],[114.459237,-7.847367],[114.459536,-7.847264],[114.459776,-7.847059],[114.459763,-7.84678],[114.459784,-7.846538],[114.459937,-7.84621],[114.460012,-7.84607],[114.460198,-7.846045],[114.460439,-7.845988],[114.4607,-7.845865],[114.46094,-7.84568],[114.461077,-7.845532],[114.461139,-7.845315],[114.461147,-7.844974],[114.461023,-7.844859],[114.460894,-7.844609],[114.460791,-7.844613],[114.460691,-7.844946],[114.460261,-7.845508],[114.459763,-7.845816],[114.459403,-7.845885],[114.458827,-7.846107],[114.458782,-7.846357],[114.458574,-7.846653],[114.458289,-7.846866],[114.458322,-7.847125],[114.458152,-7.847207]]]}},{"type":"Feature","properties":{"no":9,"type":"mangrove"},"geometry":{"type":"Polygon","coordinates":[[[114.355805,-8.46891],[114.355817,-8.468733],[114.355751,-8.468676],[114.355642,-8.468702],[114.355441,-8.468253],[114.355801,-8.468273],[114.355786,-8.467958],[114.355534,-8.467931],[114.355429,-8.467697],[114.355312,-8.467639],[114.354886,-8.467751],[114.355134,-8.469079],[114.355115,-8.469816],[114.355192,-8.469854],[114.355204,-8.469935],[114.355363,-8.469938],[114.355604,-8.469881],[114.355666,-8.469793],[114.355774,-8.469363],[114.355805,-8.46891]]]}},{"type":"Feature","properties":{"no":0,"type":"mangrove"},"geometry":{"type":"Polygon","coordinates":[[[114.363778,-8.493568],[114.363885,-8.493564],[114.36443,-8.493298],[114.365322,-8.492517],[114.365393,-8.491752],[114.365788,-8.491486],[114.365835,-8.491236],[114.365804,-8.491018],[114.365875,-8.49044],[114.365906,-8.489511],[114.365677,-8.488659],[114.365038,-8.488245],[114.364745,-8.488253],[114.364627,-8.488964],[114.364761,-8.489073],[114.36469,-8.489136],[114.364264,-8.489143],[114.364142,-8.489327],[114.364442,-8.490733],[114.364552,-8.49224],[114.363313,-8.492302],[114.363399,-8.493489],[114.363778,-8.493568]]]}},{"type":"Feature","properties":{"no":1,"type":"mangrove"},"geometry":{"type":"Polygon","coordinates":[[[114.230343,-8.600542],[114.230975,-8.600496],[114.231745,-8.600193],[114.23143,-8.599495],[114.231801,-8.599348],[114.232238,-8.599431],[114.232563,-8.600037],[114.232879,-8.600101],[114.232721,-8.599247],[114.233048,-8.598703],[114.233958,-8.59795],[114.235876,-8.596978],[114.237226,-8.596403],[114.237996,-8.59566],[114.240049,-8.594163],[114.236761,-8.594108],[114.235507,-8.594346],[114.235006,-8.594401],[114.233835,-8.594851],[114.232538,-8.59528],[114.232083,-8.595803],[114.23166,-8.597111],[114.231178,-8.597221],[114.230908,-8.597515],[114.230713,-8.597983],[114.230722,-8.599104],[114.230343,-8.600542]]]}},{"type":"Feature","properties":{"no":2,"type":"mangrove"},"geometry":{"type":"Polygon","coordinates":[[[113.998651,-8.589063],[113.998926,-8.58905],[113.999237,-8.588742],[113.999287,-8.588506],[113.999539,-8.588381],[113.999449,-8.5881],[113.99944,-8.588002],[113.999634,-8.587859],[113.999666,-8.587565],[113.999977,-8.587364],[114.000324,-8.587293],[114.000482,-8.587253],[114.000739,-8.587311],[114.000843,-8.587462],[114.001249,-8.587338],[114.001122,-8.587204],[114.000707,-8.58674],[114.000414,-8.586829],[113.999788,-8.586635],[113.999255,-8.586644],[113.999246,-8.586827],[113.998953,-8.587014],[113.998922,-8.587094],[113.998944,-8.587442],[113.999134,-8.587745],[113.999102,-8.587968],[113.998967,-8.587995],[113.998687,-8.588592],[113.998683,-8.588641],[113.998741,-8.588913],[113.998651,-8.589063]]]}},{"type":"Feature","properties":{"no":3,"type":"mangrove"},"geometry":{"type":"Polygon","coordinates":[[[113.588374,-8.439364],[113.588443,-8.439462],[113.588416,-8.439485],[113.588585,-8.439655],[113.5886,-8.439766],[113.588609,-8.439827],[113.588703,-8.439844],[113.588856,-8.439775],[113.589048,-8.439601],[113.589385,-8.439339],[113.589502,-8.43919],[113.589523,-8.438999],[113.589618,-8.438887],[113.589781,-8.438578],[113.589859,-8.438291],[113.589825,-8.438229],[113.589778,-8.438323],[113.589607,-8.438413],[113.589481,-8.438515],[113.589364,-8.438697],[113.589172,-8.438945],[113.589066,-8.439065],[113.588898,-8.439115],[113.58876,-8.439177],[113.588374,-8.439364]]]}},{"type":"Feature","properties":{"no":4,"type":"mangrove"},"geometry":{"type":"Polygon","coordinates":[[[113.560985,-8.423072],[113.561066,-8.423229],[113.561151,-8.423561],[113.561167,-8.423664],[113.561388,-8.423808],[113.561642,-8.423815],[113.561817,-8.423763],[113.562058,-8.423519],[113.561918,-8.423223],[113.560985,-8.423072]]]}},{"type":"Feature","properties":{"no":5,"type":"mangrove"},"geometry":{"type":"Polygon","coordinates":[[[113.561095,-8.423046],[113.561908,-8.42321],[113.561913,-8.422995],[113.561987,-8.42275],[113.562256,-8.422397],[113.562348,-8.422345],[113.562395,-8.422414],[113.562609,-8.422401],[113.562722,-8.422453],[113.562978,-8.42222],[113.563035,-8.421545],[113.562769,-8.42167],[113.562565,-8.421751],[113.562369,-8.42204],[113.562182,-8.422169],[113.561934,-8.422388],[113.561804,-8.422668],[113.561578,-8.42287],[113.56136,-8.422973],[113.561095,-8.423046]]]}},{"type":"Feature","properties":{"no":6,"type":"mangrove"},"geometry":{"type":"Polygon","coordinates":[[[112.669778,-8.437552],[112.670618,-8.437468],[112.670948,-8.437795],[112.67103,-8.438366],[112.670558,-8.438684],[112.669678,-8.438829],[112.669352,-8.438915],[112.669205,-8.439128],[112.669215,-8.439346],[112.669591,-8.439586],[112.669962,-8.439469],[112.67026,-8.439133],[112.67043,-8.438988],[112.670686,-8.43887],[112.670929,-8.43887],[112.671094,-8.438952],[112.672901,-8.438575],[112.673177,-8.438525],[112.672888,-8.436608],[112.672681,-8.436926],[112.67224,-8.436917],[112.671764,-8.436681],[112.671695,-8.436758],[112.671814,-8.43684],[112.671979,-8.437107],[112.671915,-8.437334],[112.671768,-8.437651],[112.671539,-8.437728],[112.671232,-8.437633],[112.671025,-8.437216],[112.671122,-8.437003],[112.671264,-8.436808],[112.671346,-8.43654],[112.670943,-8.436463],[112.670558,-8.436572],[112.670099,-8.436998],[112.669778,-8.437552]]]}},{"type":"Feature","properties":{"no":7,"type":"mangrove"},"geometry":{"type":"Polygon","coordinates":[[[112.675101,-8.436638],[112.67492,-8.436824],[112.674813,-8.437148],[112.674806,-8.43743],[112.67486,-8.437436],[112.674957,-8.43732],[112.675044,-8.437241],[112.675158,-8.437205],[112.675412,-8.437191],[112.67572,-8.437205],[112.67581,-8.437228],[112.675753,-8.437138],[112.675653,-8.437049],[112.675489,-8.436936],[112.675215,-8.436658],[112.675101,-8.436638]]]}},{"type":"Feature","properties":{"no":8,"type":"mangrove"},"geometry":{"type":"Polygon","coordinates":[[[112.675584,-8.436056],[112.675554,-8.436129],[112.675513,-8.436241],[112.67561,-8.436446],[112.675704,-8.436609],[112.675781,-8.436671],[112.676132,-8.436668],[112.676542,-8.436764],[112.676569,-8.43681],[112.676689,-8.436585],[112.676431,-8.436555],[112.676331,-8.436231],[112.676167,-8.436191],[112.675836,-8.436138],[112.675584,-8.436056]]]}},{"type":"Feature","properties":{"no":9,"type":"mangrove"},"geometry":{"type":"Polygon","coordinates":[[[112.010039,-6.833969],[112.010135,-6.834047],[112.010162,-6.834164],[112.01014,-6.834561],[112.010188,-6.83459],[112.01022,-6.834295],[112.010277,-6.834258],[112.010292,-6.834028],[112.010265,-6.833945],[112.010217,-6.833892],[112.010121,-6.833904],[112.010039,-6.833969]]]}},{"type":"Feature","properties":{"no":0,"type":"mangrove"},"geometry":{"type":"Polygon","coordinates":[[[112.009254,-6.836085],[112.009394,-6.835878],[112.00972,-6.835509],[112.009888,-6.835284],[112.009953,-6.835175],[112.010181,-6.835294],[112.010375,-6.835058],[112.010137,-6.834941],[112.010001,-6.835039],[112.009907,-6.835167],[112.009732,-6.835434],[112.009494,-6.835686],[112.009392,-6.835781],[112.009254,-6.836085]]]}},{"type":"Feature","properties":{"no":1,"type":"mangrove"},"geometry":{"type":"Polygon","coordinates":[[[112.009984,-6.833798],[112.010089,-6.833727],[112.010212,-6.833697],[112.010332,-6.833727],[112.01039,-6.833795],[112.010419,-6.833868],[112.010454,-6.833949],[112.010406,-6.833676],[112.01033,-6.833423],[112.010286,-6.833378],[112.010094,-6.833401],[112.009873,-6.833458],[112.009741,-6.833513],[112.009833,-6.833615],[112.009826,-6.833731],[112.00983,-6.833885],[112.00986,-6.834056],[112.00988,-6.834187],[112.009918,-6.834191],[112.009914,-6.833907],[112.009984,-6.833798]]]}},{"type":"Feature","properties":{"no":2,"type":"mangrove"},"geometry":{"type":"Polygon","coordinates":[[[112.012703,-6.838297],[112.012676,-6.838414],[112.012709,-6.838463],[112.013012,-6.838964],[112.013293,-6.839433],[112.013338,-6.839331],[112.013305,-6.83921],[112.013192,-6.838967],[112.013113,-6.838797],[112.013029,-6.838713],[112.012911,-6.838625],[112.012703,-6.838297]]]}},{"type":"Feature","properties":{"no":3,"type":"mangrove"},"geometry":{"type":"Polygon","coordinates":[[[112.013415,-6.839347],[112.013625,-6.839546],[112.013827,-6.839815],[112.014011,-6.84006],[112.014041,-6.839981],[112.013694,-6.839448],[112.013736,-6.839288],[112.013631,-6.839217],[112.013491,-6.839265],[112.013415,-6.839347]]]}},{"type":"Feature","properties":{"no":4,"type":"mangrove"},"geometry":{"type":"Polygon","coordinates":[[[112.013002,-6.841237],[112.013296,-6.841058],[112.013252,-6.840993],[112.013312,-6.840963],[112.013374,-6.840765],[112.013497,-6.840668],[112.013554,-6.840641],[112.013637,-6.840692],[112.013651,-6.8408],[112.013769,-6.840891],[112.013945,-6.840637],[112.01395,-6.840535],[112.013879,-6.84049],[112.013811,-6.840433],[112.013824,-6.840331],[112.013734,-6.84024],[112.013631,-6.840186],[112.013323,-6.840186],[112.013239,-6.840148],[112.013189,-6.840144],[112.013152,-6.840246],[112.013062,-6.840539],[112.013031,-6.84071],[112.01297,-6.840847],[112.012886,-6.840958],[112.012844,-6.84102],[112.012959,-6.84118],[112.013047,-6.841189],[112.012941,-6.840987],[112.012994,-6.840943],[112.013122,-6.840987],[112.013159,-6.841111],[112.013078,-6.841187],[112.013282,-6.841058],[112.013234,-6.840972],[112.013255,-6.84098],[112.013308,-6.840956],[112.013313,-6.840901],[112.013267,-6.840903],[112.013205,-6.840781],[112.013269,-6.840688],[112.013341,-6.840716],[112.013368,-6.840748],[112.013366,-6.840808],[112.013322,-6.840934],[112.0133,-6.840965],[112.013255,-6.840987],[112.01328,-6.841049],[112.013053,-6.841204],[112.013002,-6.841237]]]}},{"type":"Feature","properties":{"no":5,"type":"mangrove"},"geometry":{"type":"Polygon","coordinates":[[[112.01397,-6.842136],[112.014354,-6.842618],[112.014555,-6.842462],[112.014172,-6.841987],[112.01397,-6.842136]]]}},{"type":"Feature","properties":{"no":6,"type":"mangrove"},"geometry":{"type":"Polygon","coordinates":[[[112.662279,-7.198219],[112.661887,-7.198233],[112.661706,-7.198451],[112.66169,-7.198434],[112.660858,-7.198717],[112.65989,-7.198871],[112.65969,-7.199252],[112.660622,-7.19987],[112.662588,-7.199134],[112.662279,-7.198219]]]}},{"type":"Feature","properties":{"no":7,"type":"mangrove"},"geometry":{"type":"Polygon","coordinates":[[[112.648312,-7.19543],[112.648325,-7.195566],[112.650784,-7.194937],[112.651268,-7.194734],[112.651243,-7.194654],[112.648312,-7.19543]]]}},{"type":"Feature","properties":{"no":8,"type":"mangrove"},"geometry":{"type":"Polygon","coordinates":[[[112.658169,-7.193684],[112.6583,-7.194035],[112.659653,-7.193715],[112.659566,-7.193487],[112.658169,-7.193684]]]}},{"type":"Feature","properties":{"no":9,"type":"mangrove"},"geometry":{"type":"Polygon","coordinates":[[[112.661785,-7.201019],[112.662007,-7.201612],[112.663525,-7.201055],[112.664902,-7.19927],[112.661785,-7.201019]]]}},{"type":"Feature","properties":{"no":0,"type":"mangrove"},"geometry":{"type":"Polygon","coordinates":[[[112.660716,-7.207969],[112.660869,-7.207971],[112.661066,-7.207971],[112.661334,-7.207989],[112.661432,-7.207885],[112.661042,-7.207753],[112.66081,-7.207732],[112.66064,-7.207776],[112.660327,-7.207891],[112.660268,-7.208367],[112.659852,-7.208912],[112.659602,-7.208992],[112.658573,-7.208977],[112.658186,-7.208942],[112.658154,-7.209175],[112.658496,-7.209214],[112.659127,-7.209237],[112.659443,-7.209231],[112.660088,-7.209228],[112.660234,-7.208865],[112.660573,-7.208226],[112.660716,-7.207969]]]}}]}