{"type":"FeatureCollection","features":[{"type":"Feature","properties":{"no":1},"geometry":{"type":"Polygon","coordinates":[[[112.7126,-7.231496],[112.712136,-7.233653],[112.713081,-7.234829],[112.714602,-7.235715],[112.715444,-7.235818],[112.715427,-7.236193],[112.715625,-7.236176],[112.715676,-7.23598],[112.716329,-7.236107],[112.719122,-7.232306],[112.717421,-7.231931],[112.716561,-7.231803],[112.716252,-7.232221],[112.7126,-7.231496]]]}},{"type":"Feature","properties":{"no":2},"geometry":{"type":"Polygon","coordinates":[[[112.719518,-7.23221],[112.716623,-7.236096],[112.718616,-7.236565],[112.71969,-7.23619],[112.720292,-7.234571],[112.720085,-7.234042],[112.720223,-7.232883],[112.719518,-7.23221]]]}},{"type":"Feature","properties":{"no":3},"geometry":{"type":"Polygon","coordinates":[[[112.660523,-6.994853],[112.648029,-6.994853],[112.64306,-6.999081],[112.656263,-7.007113],[112.674578,-7.000631],[112.660523,-6.994853]]]}},{"type":"Feature","properties":{"no":4},"geometry":{"type":"Polygon","coordinates":[[[112.745567,-6.997803],[112.772516,-6.977104],[112.746209,-6.967551],[112.716693,-6.986976],[112.745567,-6.997803]]]}},{"type":"Feature","properties":{"no":5},"geometry":{"type":"Polygon","coordinates":[[[112.597067,-6.943771],[112.608616,-6.967337],[112.639415,-6.972751],[112.630753,-6.929758],[112.597067,-6.943771]]]}},{"type":"Feature","properties":{"no":6},"geometry":{"type":"Polygon","coordinates":[[[112.481648,-6.897774],[112.50186,-6.862738],[112.454058,-6.842352],[112.443471,-6.871657],[112.481648,-6.897774]]]}},{"type":"Feature","properties":{"no":7},"geometry":{"type":"Polygon","coordinates":[[[112.200823,-6.868981],[112.215581,-6.836173],[112.159116,-6.83235],[112.145,-6.878855],[112.200823,-6.868981]]]}},{"type":"Feature","properties":{"no":8},"geometry":{"type":"Polygon","coordinates":[[[112.206824,-7.217305],[112.207113,-7.217776],[112.206859,-7.218304],[112.207368,-7.21804],[112.207854,-7.21835],[112.207958,-7.218787],[112.208363,-7.218373],[112.208699,-7.21858],[112.208919,-7.219659],[112.209672,-7.220211],[112.208722,-7.220165],[112.208526,-7.220337],[112.209035,-7.220647],[112.209313,-7.220647],[112.209475,-7.221164],[112.208641,-7.221336],[112.208433,-7.221083],[112.208109,-7.221198],[112.207449,-7.221106],[112.207391,-7.221336],[112.207929,-7.22141],[112.208589,-7.221858],[112.208473,-7.222111],[112.208033,-7.222099],[112.207894,-7.22249],[112.208971,-7.222398],[112.209052,-7.222938],[112.207767,-7.223489],[112.20742,-7.223994],[112.208357,-7.223742],[112.208739,-7.224063],[112.209055,-7.225272],[112.209703,-7.225008],[112.209425,-7.22417],[112.209888,-7.223515],[112.21027,-7.222849],[112.210039,-7.222539],[112.210502,-7.221758],[112.211161,-7.221942],[112.211509,-7.221666],[112.211636,-7.222286],[112.212736,-7.221942],[112.213396,-7.220759],[112.213753,-7.221434],[112.213522,-7.219964],[112.213718,-7.219298],[112.213823,-7.21885],[112.214888,-7.219149],[112.215096,-7.220297],[112.215455,-7.219287],[112.215999,-7.219677],[112.216092,-7.2191],[112.2174,-7.219468],[112.216971,-7.218974],[112.218002,-7.218388],[112.216879,-7.218572],[112.216288,-7.218388],[112.215409,-7.218607],[112.214644,-7.218205],[112.215293,-7.217607],[112.214228,-7.218055],[112.213672,-7.217711],[112.214401,-7.216815],[112.212931,-7.21755],[112.212746,-7.216298],[112.212954,-7.215853],[112.211438,-7.215279],[112.210338,-7.216255],[112.209574,-7.21668],[112.209308,-7.217392],[112.208416,-7.217657],[112.206824,-7.217305]]]}},{"type":"Feature","properties":{"no":9},"geometry":{"type":"Polygon","coordinates":[[[112.2176,-7.197383],[112.217785,-7.197894],[112.218224,-7.198315],[112.218032,-7.199102],[112.218694,-7.199323],[112.219348,-7.199866],[112.22018,-7.200263],[112.22105,-7.200798],[112.221612,-7.200225],[112.222159,-7.200026],[112.222452,-7.199621],[112.22276,-7.19817],[112.221997,-7.197146],[112.22199,-7.196053],[112.222282,-7.195885],[112.22112,-7.195641],[112.220719,-7.196565],[112.219425,-7.195954],[112.2176,-7.197383]]]}},{"type":"Feature","properties":{"no":0},"geometry":{"type":"Polygon","coordinates":[[[111.24524,-8.268705],[111.253291,-8.290901],[111.261535,-8.272879],[111.24524,-8.268705]]]}},{"type":"Feature","properties":{"no":1},"geometry":{"type":"Polygon","coordinates":[[[111.33754,-8.281472],[111.305716,-8.291376],[111.330638,-8.309398],[111.365337,-8.2828],[111.33754,-8.281472]]]}},{"type":"Feature","properties":{"no":2},"geometry":{"type":"Polygon","coordinates":[[[111.407604,-8.291878],[111.385557,-8.310089],[111.422941,-8.322988],[111.430609,-8.300035],[111.407604,-8.291878]]]}},{"type":"Feature","properties":{"no":3},"geometry":{"type":"Polygon","coordinates":[[[111.226428,-7.071715],[111.22664,-7.071782],[111.226821,-7.071819],[111.227025,-7.071735],[111.227239,-7.071489],[111.227458,-7.071234],[111.227551,-7.071016],[111.227357,-7.071176],[111.22715,-7.071436],[111.226714,-7.071755],[111.226428,-7.071715]]]}},{"type":"Feature","properties":{"no":4},"geometry":{"type":"Polygon","coordinates":[[[111.22493,-7.069398],[111.224985,-7.069453],[111.224928,-7.069486],[111.224996,-7.069466],[111.225093,-7.069492],[111.22528,-7.069508],[111.225513,-7.069564],[111.225654,-7.069684],[111.225733,-7.069912],[111.225759,-7.070021],[111.225876,-7.070067],[111.225892,-7.069894],[111.225779,-7.069679],[111.225465,-7.069405],[111.225385,-7.069442],[111.22524,-7.069407],[111.225001,-7.069433],[111.22493,-7.069398]]]}},{"type":"Feature","properties":{"no":5},"geometry":{"type":"Polygon","coordinates":[[[111.237892,-6.699221],[111.237798,-6.698932],[111.237858,-6.698686],[111.237815,-6.698231],[111.237853,-6.697942],[111.237605,-6.697964],[111.237699,-6.69872],[111.237678,-6.698996],[111.237866,-6.69948],[111.237969,-6.699404],[111.237892,-6.699221]]]}},{"type":"Feature","properties":{"no":6},"geometry":{"type":"Polygon","coordinates":[[[111.233872,-6.688267],[111.233606,-6.689843],[111.233517,-6.6908],[111.233551,-6.691365],[111.233765,-6.691127],[111.233786,-6.690269],[111.233957,-6.689266],[111.234107,-6.68837],[111.234291,-6.687452],[111.234026,-6.687337],[111.233872,-6.688267]]]}},{"type":"Feature","properties":{"no":7},"geometry":{"type":"Polygon","coordinates":[[[111.234758,-6.687486],[111.234509,-6.688216],[111.235384,-6.688538],[111.235696,-6.687802],[111.234758,-6.687486]]]}},{"type":"Feature","properties":{"no":8},"geometry":{"type":"Polygon","coordinates":[[[111.234147,-6.686628],[111.236081,-6.687301],[111.236237,-6.685231],[111.234657,-6.685156],[111.234147,-6.686628]]]}},{"type":"Feature","properties":{"no":9},"geometry":{"type":"Polygon","coordinates":[[[111.244823,-6.688827],[111.248441,-6.688639],[111.247511,-6.685291],[111.242934,-6.686575],[111.244823,-6.688827]]]}},{"type":"Feature","properties":{"no":0},"geometry":{"type":"Polygon","coordinates":[[[111.255373,-6.687735],[111.258014,-6.68643],[111.256239,-6.685151],[111.252879,-6.685505],[111.255373,-6.687735]]]}},{"type":"Feature","properties":{"no":1},"geometry":{"type":"Polygon","coordinates":[[[111.264328,-6.685104],[111.268887,-6.687161],[111.27038,-6.683463],[111.264527,-6.68109],[111.264328,-6.685104]]]}},{"type":"Feature","properties":{"no":2},"geometry":{"type":"Polygon","coordinates":[[[111.280135,-6.685174],[111.283289,-6.685499],[111.283495,-6.680885],[111.279225,-6.681704],[111.280135,-6.685174]]]}},{"type":"Feature","properties":{"no":3},"geometry":{"type":"Polygon","coordinates":[[[111.333135,-6.698098],[111.333245,-6.690511],[111.325318,-6.691103],[111.326756,-6.698627],[111.326896,-6.698592],[111.330605,-6.698554],[111.333135,-6.698098]]]}},{"type":"Feature","properties":{"no":4},"geometry":{"type":"Polygon","coordinates":[[[111.355247,-6.696101],[111.365959,-6.699902],[111.366556,-6.68994],[111.350142,-6.685133],[111.350247,-6.685098],[111.351362,-6.692632],[111.355247,-6.696101]]]}},{"type":"Feature","properties":{"no":5},"geometry":{"type":"Polygon","coordinates":[[[111.398715,-6.684272],[111.407097,-6.685631],[111.407097,-6.67309],[111.396961,-6.67633],[111.398715,-6.684272]]]}},{"type":"Feature","properties":{"no":6},"geometry":{"type":"Polygon","coordinates":[[[111.383575,-6.671707],[111.397832,-6.667813],[111.390525,-6.656484],[111.373774,-6.664184],[111.383575,-6.671707]]]}},{"type":"Feature","properties":{"no":7},"geometry":{"type":"Polygon","coordinates":[[[111.351228,-6.677056],[111.369205,-6.678709],[111.365106,-6.660124],[111.338821,-6.664283],[111.351228,-6.677056]]]}},{"type":"Feature","properties":{"no":8},"geometry":{"type":"Polygon","coordinates":[[[111.607885,-7.146164],[111.606741,-7.145851],[111.605479,-7.145617],[111.60264,-7.144756],[111.600274,-7.143817],[111.598185,-7.144873],[111.597041,-7.146986],[111.598106,-7.15082],[111.599841,-7.151172],[111.598539,-7.148551],[111.5985,-7.146321],[111.600866,-7.145264],[111.605558,-7.146673],[111.607924,-7.147573],[111.61167,-7.149529],[111.617663,-7.15438],[111.618097,-7.153285],[111.613839,-7.14949],[111.607885,-7.146164]]]}},{"type":"Feature","properties":{"no":9},"geometry":{"type":"Polygon","coordinates":[[[111.665008,-7.159533],[111.66635,-7.160643],[111.667916,-7.158487],[111.66977,-7.15541],[111.671497,-7.15078],[111.670026,-7.150399],[111.668652,-7.153285],[111.665008,-7.159533]]]}},{"type":"Feature","properties":{"no":0},"geometry":{"type":"Polygon","coordinates":[[[111.687846,-7.149383],[111.687015,-7.151888],[111.68596,-7.152523],[111.68369,-7.152903],[111.6819,-7.152396],[111.681325,-7.153379],[111.684553,-7.154331],[111.68791,-7.153316],[111.689252,-7.150049],[111.689444,-7.147353],[111.68791,-7.145291],[111.687846,-7.149383]]]}},{"type":"Feature","properties":{"no":1},"geometry":{"type":"Polygon","coordinates":[[[111.733633,-7.110286],[111.733493,-7.111333],[111.738428,-7.112304],[111.742877,-7.113864],[111.746969,-7.115939],[111.747977,-7.115293],[111.745141,-7.113396],[111.74026,-7.11164],[111.733633,-7.110286]]]}},{"type":"Feature","properties":{"no":2},"geometry":{"type":"Polygon","coordinates":[[[111.771378,-7.106811],[111.770818,-7.105977],[111.768531,-7.107412],[111.766688,-7.109959],[111.766735,-7.11283],[111.768625,-7.115353],[111.771191,-7.115955],[111.771424,-7.114914],[111.768578,-7.113085],[111.768205,-7.109681],[111.771378,-7.106811]]]}},{"type":"Feature","properties":{"no":3},"geometry":{"type":"Polygon","coordinates":[[[111.831967,-7.134874],[111.832043,-7.13463],[111.830946,-7.130182],[111.831154,-7.128793],[111.832289,-7.126672],[111.832837,-7.125696],[111.83384,-7.124439],[111.83261,-7.12397],[111.831135,-7.126053],[111.829622,-7.128493],[111.829414,-7.130313],[111.830775,-7.135061],[111.831002,-7.13523],[111.831967,-7.134874]]]}},{"type":"Feature","properties":{"no":4},"geometry":{"type":"Polygon","coordinates":[[[111.897538,-7.135948],[111.894468,-7.135811],[111.892216,-7.135673],[111.891021,-7.135848],[111.890668,-7.13651],[111.891436,-7.137109],[111.891989,-7.13646],[111.892744,-7.13621],[111.897576,-7.136734],[111.897538,-7.135948]]]}},{"type":"Feature","properties":{"no":5},"geometry":{"type":"Polygon","coordinates":[[[112.419282,-6.979145],[112.420612,-6.980253],[112.420744,-6.980693],[112.419742,-6.984783],[112.42145,-6.984914],[112.426884,-6.986381],[112.427377,-6.981573],[112.42764,-6.981329],[112.428181,-6.980807],[112.428871,-6.97965],[112.428346,-6.978362],[112.427672,-6.978917],[112.426917,-6.97877],[112.426408,-6.979226],[112.42498,-6.978623],[112.424602,-6.979389],[112.424077,-6.979096],[112.42406,-6.9789],[112.423124,-6.97864],[112.4225,-6.978705],[112.422681,-6.979031],[112.421811,-6.979324],[112.421088,-6.979683],[112.419824,-6.979242],[112.419282,-6.979145]]]}},{"type":"Feature","properties":{"no":6},"geometry":{"type":"Polygon","coordinates":[[[112.448915,-6.981434],[112.448663,-6.982927],[112.449435,-6.983396],[112.450183,-6.983646],[112.451034,-6.983497],[112.451877,-6.983716],[112.452144,-6.983583],[112.451955,-6.983106],[112.451294,-6.9827],[112.450577,-6.982028],[112.450073,-6.981715],[112.448915,-6.981434]]]}},{"type":"Feature","properties":{"no":7},"geometry":{"type":"Polygon","coordinates":[[[112.509104,-7.027602],[112.509009,-7.028241],[112.512851,-7.028836],[112.513027,-7.028253],[112.512914,-7.028072],[112.510612,-7.027615],[112.510233,-7.027753],[112.509104,-7.027602]]]}},{"type":"Feature","properties":{"no":8},"geometry":{"type":"Polygon","coordinates":[[[112.569818,-7.029964],[112.569988,-7.03118],[112.570159,-7.031254],[112.570159,-7.031551],[112.572674,-7.032259],[112.572738,-7.03191],[112.572184,-7.031667],[112.571555,-7.030905],[112.570756,-7.030471],[112.569818,-7.029964]]]}},{"type":"Feature","properties":{"no":9},"geometry":{"type":"Polygon","coordinates":[[[112.583004,-6.886272],[112.582845,-6.885293],[112.587522,-6.884756],[112.600377,-6.880996],[112.604832,-6.877932],[112.604545,-6.876763],[112.607059,-6.876258],[112.5964,-6.86716],[112.588002,-6.860629],[112.578679,-6.857691],[112.57744,-6.860613],[112.577935,-6.862718],[112.575426,-6.863735],[112.57486,-6.864964],[112.576203,-6.866542],[112.577369,-6.870121],[112.57674,-6.878911],[112.580486,-6.885437],[112.581899,-6.887015],[112.58197,-6.887191],[112.582889,-6.888243],[112.583004,-6.886272]]]}},{"type":"Feature","properties":{"no":0},"geometry":{"type":"Polygon","coordinates":[[[112.584891,-6.854108],[112.608055,-6.871847],[112.621253,-6.867212],[112.591535,-6.845372],[112.584891,-6.854108]]]}},{"type":"Feature","properties":{"no":1},"geometry":{"type":"Polygon","coordinates":[[[112.58982,-6.836088],[112.622322,-6.850886],[112.626272,-6.828868],[112.594848,-6.815852],[112.58982,-6.836088]]]}},{"type":"Feature","properties":{"no":2},"geometry":{"type":"Polygon","coordinates":[[[112.398979,-7.381788],[112.398801,-7.382582],[112.398949,-7.382747],[112.399053,-7.383235],[112.39986,-7.383839],[112.400118,-7.383662],[112.400611,-7.383766],[112.401423,-7.383498],[112.401959,-7.382454],[112.402119,-7.381794],[112.40186,-7.381758],[112.400044,-7.381996],[112.398979,-7.381788]]]}},{"type":"Feature","properties":{"no":3},"geometry":{"type":"Polygon","coordinates":[[[112.386497,-7.457956],[112.386621,-7.459232],[112.388549,-7.459124],[112.390878,-7.458573],[112.392793,-7.458223],[112.395168,-7.458008],[112.396092,-7.457833],[112.397598,-7.457968],[112.398169,-7.457025],[112.396417,-7.456716],[112.394208,-7.457041],[112.392457,-7.457391],[112.389905,-7.457808],[112.386497,-7.457956]]]}},{"type":"Feature","properties":{"no":4},"geometry":{"type":"Polygon","coordinates":[[[112.399163,-7.457228],[112.398986,-7.458224],[112.402027,-7.45856],[112.402272,-7.458237],[112.404444,-7.458385],[112.405272,-7.458829],[112.406249,-7.458439],[112.40891,-7.458654],[112.408788,-7.457551],[112.408421,-7.457497],[112.408082,-7.457658],[112.406222,-7.457699],[112.404933,-7.457254],[112.403846,-7.457133],[112.402652,-7.457174],[112.401606,-7.457228],[112.399163,-7.457228]]]}},{"type":"Feature","properties":{"no":5},"geometry":{"type":"Polygon","coordinates":[[[112.411539,-7.45698],[112.41197,-7.457925],[112.413525,-7.457627],[112.415842,-7.457478],[112.417156,-7.457488],[112.417457,-7.456463],[112.415591,-7.456553],[112.414086,-7.456781],[112.413144,-7.456831],[112.411539,-7.45698]]]}},{"type":"Feature","properties":{"no":6},"geometry":{"type":"Polygon","coordinates":[[[112.42821,-7.462049],[112.428642,-7.462397],[112.429063,-7.461671],[112.429966,-7.461005],[112.430798,-7.460587],[112.431871,-7.460766],[112.431881,-7.459602],[112.430808,-7.459573],[112.429635,-7.459205],[112.42811,-7.458499],[112.426927,-7.457961],[112.426596,-7.458747],[112.427378,-7.459065],[112.428602,-7.459732],[112.429605,-7.460229],[112.430016,-7.460358],[112.429795,-7.460647],[112.429294,-7.460995],[112.428903,-7.461383],[112.42821,-7.462049]]]}},{"type":"Feature","properties":{"no":7},"geometry":{"type":"Polygon","coordinates":[[[112.506863,-7.464164],[112.507018,-7.464376],[112.507248,-7.464259],[112.507675,-7.464339],[112.508215,-7.464831],[112.508781,-7.465224],[112.509161,-7.465531],[112.509503,-7.465653],[112.51001,-7.466061],[112.510929,-7.466781],[112.5114,-7.466193],[112.510796,-7.4657],[112.510245,-7.465091],[112.509577,-7.464609],[112.508947,-7.464344],[112.50829,-7.463904],[112.507974,-7.463655],[112.507745,-7.463327],[112.507451,-7.463602],[112.507376,-7.46347],[112.506991,-7.463941],[112.506863,-7.464164]]]}},{"type":"Feature","properties":{"no":8},"geometry":{"type":"Polygon","coordinates":[[[112.516212,-7.466692],[112.516088,-7.46754],[112.517454,-7.467645],[112.517869,-7.467549],[112.519746,-7.467645],[112.520654,-7.467986],[112.521033,-7.46775],[112.521911,-7.467961],[112.52259,-7.468415],[112.523841,-7.468834],[112.524132,-7.469123],[112.525685,-7.469263],[112.527959,-7.469359],[112.528496,-7.469333],[112.528602,-7.46859],[112.527853,-7.46852],[112.526884,-7.468572],[112.525578,-7.46845],[112.523876,-7.468074],[112.521672,-7.467383],[112.519945,-7.466911],[112.517879,-7.466826],[112.51706,-7.466852],[112.516212,-7.466692]]]}},{"type":"Feature","properties":{"no":9},"geometry":{"type":"Polygon","coordinates":[[[112.528726,-7.468573],[112.528664,-7.469464],[112.529722,-7.4697],[112.530683,-7.47019],[112.531273,-7.469989],[112.532084,-7.470557],[112.532216,-7.471099],[112.533151,-7.471474],[112.533882,-7.471745],[112.534878,-7.471745],[112.536482,-7.471387],[112.53763,-7.471037],[112.538802,-7.471072],[112.539675,-7.47123],[112.540618,-7.471728],[112.540759,-7.471265],[112.540019,-7.47088],[112.538882,-7.470251],[112.538776,-7.470417],[112.538617,-7.470295],[112.538661,-7.470207],[112.538,-7.469928],[112.537463,-7.469963],[112.536652,-7.470286],[112.535766,-7.470684],[112.534647,-7.470771],[112.533202,-7.470622],[112.531915,-7.469845],[112.530716,-7.469207],[112.529687,-7.468826],[112.528726,-7.468573]]]}},{"type":"Feature","properties":{"no":0},"geometry":{"type":"Polygon","coordinates":[[[112.554599,-7.474736],[112.554505,-7.474951],[112.554652,-7.47523],[112.554822,-7.475434],[112.555373,-7.475527],[112.555953,-7.475591],[112.556229,-7.475521],[112.556856,-7.475504],[112.557495,-7.475748],[112.557677,-7.475591],[112.55814,-7.475672],[112.558293,-7.475684],[112.558328,-7.475317],[112.558498,-7.475213],[112.55841,-7.475126],[112.557912,-7.47519],[112.557372,-7.474992],[112.556739,-7.47494],[112.555836,-7.474748],[112.555391,-7.474661],[112.554599,-7.474736]]]}}]}