{"type":"FeatureCollection","features":[{"type":"Feature","geometry":{"type":"Polygon","coordinates":[[[112.558966,-7.077192],[112.558951,-7.078183],[112.558929,-7.078985],[112.55923,-7.07913],[112.55951,-7.079058],[112.559385,-7.076929],[112.558966,-7.077192]]]},"properties":{"type":"sawah","no":1}},{"type":"Feature","geometry":{"type":"Polygon","coordinates":[[[112.557663,-7.077807],[112.557601,-7.079332],[112.557587,-7.079557],[112.557872,-7.079513],[112.557877,-7.079296],[112.558015,-7.079323],[112.558117,-7.077634],[112.557663,-7.077807]]]},"properties":{"type":"sawah","no":2}},{"type":"Feature","geometry":{"type":"Polygon","coordinates":[[[112.555104,-7.081044],[112.55504,-7.08139],[112.555732,-7.081523],[112.555742,-7.081198],[112.555104,-7.081044]]]},"properties":{"type":"sawah","no":3}},{"type":"Feature","geometry":{"type":"Polygon","coordinates":[[[112.553012,-7.087579],[112.552673,-7.088019],[112.553528,-7.088307],[112.55381,-7.088107],[112.55381,-7.087931],[112.553012,-7.087579]]]},"properties":{"type":"sawah","no":4}},{"type":"Feature","geometry":{"type":"Polygon","coordinates":[[[112.561412,-7.090203],[112.561092,-7.090781],[112.562543,-7.09126],[112.562817,-7.090638],[112.561412,-7.090203]]]},"properties":{"type":"sawah","no":5}},{"type":"Feature","geometry":{"type":"Polygon","coordinates":[[[112.567086,-7.090206],[112.566851,-7.091023],[112.567171,-7.091211],[112.567406,-7.090342],[112.567086,-7.090206]]]},"properties":{"type":"sawah","no":6}},{"type":"Feature","geometry":{"type":"Polygon","coordinates":[[[112.563865,-7.096134],[112.563094,-7.096932],[112.562872,-7.097658],[112.563924,-7.097723],[112.564257,-7.096316],[112.563865,-7.096134]]]},"properties":{"type":"sawah","no":7}},{"type":"Feature","geometry":{"type":"Polygon","coordinates":[[[112.564463,-7.101569],[112.563797,-7.102697],[112.56481,-7.102969],[112.565254,-7.10199],[112.564463,-7.101569]]]},"properties":{"type":"sawah","no":8}},{"type":"Feature","geometry":{"type":"Polygon","coordinates":[[[112.563999,-7.104085],[112.563952,-7.105052],[112.564213,-7.105136],[112.564417,-7.104195],[112.563999,-7.104085]]]},"properties":{"type":"sawah","no":9}},{"type":"Feature","geometry":{"type":"Polygon","coordinates":[[[112.562237,-7.113594],[112.562298,-7.11475],[112.563537,-7.114823],[112.563549,-7.11391],[112.562237,-7.113594]]]},"properties":{"type":"sawah","no":0}},{"type":"Feature","geometry":{"type":"Polygon","coordinates":[[[112.560663,-7.121554],[112.560233,-7.122637],[112.561227,-7.1231],[112.561877,-7.12187],[112.560663,-7.121554]]]},"properties":{"type":"sawah","no":1}},{"type":"Feature","geometry":{"type":"Polygon","coordinates":[[[112.571416,-7.125301],[112.571269,-7.126081],[112.572901,-7.126835],[112.573293,-7.125959],[112.574593,-7.125557],[112.572876,-7.125387],[112.571416,-7.125301]]]},"properties":{"type":"sawah","no":2}},{"type":"Feature","geometry":{"type":"Polygon","coordinates":[[[112.583009,-7.13761],[112.583941,-7.138608],[112.58502,-7.139424],[112.584751,-7.138462],[112.583561,-7.13744],[112.583009,-7.13761]]]},"properties":{"type":"sawah","no":3}},{"type":"Feature","geometry":{"type":"Polygon","coordinates":[[[112.579522,-7.143878],[112.579473,-7.144535],[112.580123,-7.144706],[112.580246,-7.144073],[112.579522,-7.143878]]]},"properties":{"type":"sawah","no":4}},{"type":"Feature","geometry":{"type":"Polygon","coordinates":[[[112.57194,-7.146564],[112.572197,-7.148512],[112.573166,-7.149279],[112.573866,-7.148512],[112.573375,-7.146735],[112.57194,-7.146564]]]},"properties":{"type":"sawah","no":5}},{"type":"Feature","geometry":{"type":"Polygon","coordinates":[[[112.574576,-7.149307],[112.573828,-7.150232],[112.575791,-7.151389],[112.576245,-7.150415],[112.574576,-7.149307]]]},"properties":{"type":"sawah","no":6}},{"type":"Feature","geometry":{"type":"Polygon","coordinates":[[[112.575013,-7.151009],[112.574777,-7.151549],[112.574117,-7.152481],[112.574093,-7.152506],[112.575994,-7.153382],[112.576546,-7.151946],[112.575013,-7.151009]]]},"properties":{"no":7,"type":"sawah"}},{"type":"Feature","geometry":{"type":"Polygon","coordinates":[[[112.568184,-7.160089],[112.569161,-7.162875],[112.569516,-7.162661],[112.568684,-7.160435],[112.568184,-7.160089]]]},"properties":{"no":8,"type":"sawah"}},{"type":"Feature","geometry":{"type":"Polygon","coordinates":[[[112.562176,-7.163792],[112.560792,-7.163901],[112.560806,-7.164469],[112.561393,-7.164559],[112.562109,-7.164407],[112.562176,-7.163792]]]},"properties":{"no":9,"type":"sawah"}},{"type":"Feature","geometry":{"type":"Polygon","coordinates":[[[112.554968,-7.161834],[112.554619,-7.162417],[112.554608,-7.162878],[112.554514,-7.163461],[112.554887,-7.16428],[112.555276,-7.163986],[112.555247,-7.161938],[112.554968,-7.161834]]]},"properties":{"no":0,"type":"sawah"}},{"type":"Feature","geometry":{"type":"Polygon","coordinates":[[[112.539427,-7.158697],[112.539214,-7.158858],[112.539485,-7.159133],[112.541318,-7.160305],[112.541467,-7.159985],[112.539427,-7.158697]]]},"properties":{"no":1,"type":"sawah"}},{"type":"Feature","geometry":{"type":"Polygon","coordinates":[[[112.535591,-7.1551],[112.535462,-7.155343],[112.535901,-7.155452],[112.536017,-7.155215],[112.535591,-7.1551]]]},"properties":{"no":2,"type":"sawah"}},{"type":"Feature","geometry":{"type":"Polygon","coordinates":[[[112.537515,-7.159868],[112.536999,-7.161374],[112.537515,-7.161483],[112.538051,-7.159996],[112.537515,-7.159868]]]},"properties":{"no":3,"type":"sawah"}},{"type":"Feature","geometry":{"type":"Polygon","coordinates":[[[112.537603,-7.168255],[112.537488,-7.168515],[112.53747,-7.169004],[112.538325,-7.1692],[112.538436,-7.168547],[112.537603,-7.168255]]]},"properties":{"no":4,"type":"sawah"}},{"type":"Feature","geometry":{"type":"Polygon","coordinates":[[[112.542099,-7.173144],[112.542727,-7.174274],[112.543269,-7.174214],[112.543345,-7.17361],[112.54288,-7.173479],[112.542099,-7.173144]]]},"properties":{"no":5,"type":"sawah"}},{"type":"Feature","geometry":{"type":"Polygon","coordinates":[[[112.545712,-7.176142],[112.545533,-7.177394],[112.546187,-7.177501],[112.546366,-7.176229],[112.545712,-7.176142]]]},"properties":{"no":6,"type":"sawah"}},{"type":"Feature","geometry":{"type":"Polygon","coordinates":[[[112.547893,-7.176314],[112.547776,-7.177282],[112.547669,-7.177921],[112.547648,-7.177926],[112.548348,-7.177967],[112.548557,-7.17635],[112.547893,-7.176314]]]},"properties":{"no":7,"type":"sawah"}},{"type":"Feature","geometry":{"type":"Polygon","coordinates":[[[112.541004,-7.181669],[112.540692,-7.182107],[112.542233,-7.182417],[112.542382,-7.181937],[112.541004,-7.181669]]]},"properties":{"no":8,"type":"sawah"}},{"type":"Feature","geometry":{"type":"Polygon","coordinates":[[[112.540289,-7.184532],[112.540238,-7.184994],[112.541747,-7.185299],[112.541849,-7.18487],[112.540289,-7.184532]]]},"properties":{"no":9,"type":"sawah"}},{"type":"Feature","geometry":{"type":"Polygon","coordinates":[[[112.463279,-7.235044],[112.463082,-7.236346],[112.463696,-7.236474],[112.463962,-7.236233],[112.463795,-7.235112],[112.463279,-7.235044]]]},"properties":{"no":0,"type":"sawah"}},{"type":"Feature","geometry":{"type":"Polygon","coordinates":[[[112.461131,-7.237926],[112.460771,-7.238717],[112.461109,-7.238887],[112.461479,-7.238552],[112.461601,-7.238047],[112.461391,-7.23786],[112.461131,-7.237926]]]},"properties":{"no":1,"type":"sawah"}},{"type":"Feature","geometry":{"type":"Polygon","coordinates":[[[112.455029,-7.234757],[112.45471,-7.23595],[112.455082,-7.236073],[112.455418,-7.234907],[112.455029,-7.234757]]]},"properties":{"no":2,"type":"sawah"}},{"type":"Feature","geometry":{"type":"Polygon","coordinates":[[[112.451672,-7.23883],[112.451512,-7.23968],[112.451999,-7.239751],[112.452176,-7.238944],[112.451672,-7.23883]]]},"properties":{"no":3,"type":"sawah"}},{"type":"Feature","geometry":{"type":"Polygon","coordinates":[[[112.452468,-7.244738],[112.452492,-7.245087],[112.452458,-7.245274],[112.452463,-7.245279],[112.453086,-7.24537],[112.453178,-7.2448],[112.452468,-7.244738]]]},"properties":{"no":4,"type":"sawah"}},{"type":"Feature","geometry":{"type":"Polygon","coordinates":[[[112.454503,-7.245938],[112.454243,-7.24623],[112.45432,-7.246522],[112.454682,-7.246541],[112.45474,-7.246235],[112.454503,-7.245938]]]},"properties":{"no":5,"type":"sawah"}},{"type":"Feature","geometry":{"type":"Polygon","coordinates":[[[112.457963,-7.249601],[112.457863,-7.250196],[112.458249,-7.250265],[112.458323,-7.249704],[112.457963,-7.249601]]]},"properties":{"no":6,"type":"sawah"}},{"type":"Feature","geometry":{"type":"Polygon","coordinates":[[[112.457235,-7.250995],[112.457157,-7.251474],[112.457435,-7.251547],[112.457631,-7.251405],[112.457666,-7.251064],[112.457235,-7.250995]]]},"properties":{"no":7,"type":"sawah"}},{"type":"Feature","geometry":{"type":"Polygon","coordinates":[[[112.455052,-7.252271],[112.454983,-7.252715],[112.455222,-7.252754],[112.4553,-7.252331],[112.455052,-7.252271]]]},"properties":{"no":8,"type":"sawah"}},{"type":"Feature","geometry":{"type":"Polygon","coordinates":[[[112.456364,-7.25394],[112.456268,-7.254388],[112.456568,-7.25447],[112.456633,-7.253996],[112.456364,-7.25394]]]},"properties":{"no":9,"type":"sawah"}},{"type":"Feature","geometry":{"type":"Polygon","coordinates":[[[112.454098,-7.256121],[112.453943,-7.256255],[112.453784,-7.256609],[112.454103,-7.256763],[112.454595,-7.256801],[112.45474,-7.256403],[112.454098,-7.256121]]]},"properties":{"no":0,"type":"sawah"}},{"type":"Feature","geometry":{"type":"Polygon","coordinates":[[[112.450175,-7.261848],[112.450134,-7.26205],[112.449727,-7.262047],[112.449647,-7.262397],[112.450035,-7.26245],[112.450286,-7.262456],[112.450413,-7.261917],[112.450175,-7.261848]]]},"properties":{"no":1,"type":"sawah"}},{"type":"Feature","geometry":{"type":"Polygon","coordinates":[[[112.441632,-7.260135],[112.441567,-7.26047],[112.441863,-7.260543],[112.441912,-7.260186],[112.441632,-7.260135]]]},"properties":{"no":2,"type":"sawah"}},{"type":"Feature","geometry":{"type":"Polygon","coordinates":[[[112.440595,-7.25949],[112.440544,-7.259879],[112.440891,-7.259841],[112.440923,-7.259509],[112.440595,-7.25949]]]},"properties":{"no":3,"type":"sawah"}},{"type":"Feature","geometry":{"type":"Polygon","coordinates":[[[112.43554,-7.259607],[112.435504,-7.259885],[112.435433,-7.260118],[112.435433,-7.260121],[112.435377,-7.260376],[112.435361,-7.260376],[112.435703,-7.260409],[112.435876,-7.260169],[112.435954,-7.259959],[112.43611,-7.259633],[112.43554,-7.259607]]]},"properties":{"no":4,"type":"sawah"}},{"type":"Feature","geometry":{"type":"Polygon","coordinates":[[[112.433931,-7.263492],[112.433889,-7.263889],[112.433912,-7.263892],[112.434462,-7.263976],[112.434511,-7.263611],[112.433931,-7.263492]]]},"properties":{"no":5,"type":"sawah"}},{"type":"Feature","geometry":{"type":"Polygon","coordinates":[[[112.435008,-7.264536],[112.435038,-7.264843],[112.435279,-7.264888],[112.43522,-7.264572],[112.435008,-7.264536]]]},"properties":{"no":6,"type":"sawah"}},{"type":"Feature","geometry":{"type":"Polygon","coordinates":[[[112.431797,-7.263337],[112.431765,-7.263534],[112.432182,-7.263599],[112.432224,-7.263389],[112.431797,-7.263337]]]},"properties":{"no":7,"type":"sawah"}},{"type":"Feature","geometry":{"type":"Polygon","coordinates":[[[112.432788,-7.262919],[112.43271,-7.26341],[112.433107,-7.263407],[112.433198,-7.26302],[112.432788,-7.262919]]]},"properties":{"no":8,"type":"sawah"}},{"type":"Feature","geometry":{"type":"Polygon","coordinates":[[[112.430891,-7.261349],[112.430846,-7.261682],[112.431194,-7.261769],[112.431263,-7.261433],[112.430891,-7.261349]]]},"properties":{"no":9,"type":"sawah"}},{"type":"Feature","geometry":{"type":"Polygon","coordinates":[[[112.430185,-7.259129],[112.430062,-7.25993],[112.430384,-7.259988],[112.430527,-7.259242],[112.430185,-7.259129]]]},"properties":{"no":0,"type":"sawah"}},{"type":"Feature","properties":{"type":"sawah","no":1},"geometry":{"type":"Polygon","coordinates":[[[112.420366,-7.246648],[112.420378,-7.247173],[112.420414,-7.247587],[112.420676,-7.248378],[112.420973,-7.248366],[112.421152,-7.247982],[112.421396,-7.246973],[112.421461,-7.246742],[112.421116,-7.246689],[112.420783,-7.246701],[112.420366,-7.246648]]]}},{"type":"Feature","properties":{"type":"sawah","no":2},"geometry":{"type":"Polygon","coordinates":[[[112.419568,-7.246243],[112.420273,-7.246586],[112.421116,-7.246612],[112.422206,-7.246825],[112.423558,-7.247117],[112.423656,-7.246748],[112.423865,-7.246767],[112.423812,-7.247117],[112.423963,-7.247117],[112.42406,-7.24678],[112.424446,-7.246903],[112.424583,-7.246113],[112.424642,-7.245744],[112.423852,-7.245478],[112.422866,-7.244992],[112.421625,-7.24463],[112.420189,-7.244481],[112.419823,-7.244442],[112.419568,-7.246243]]]}},{"type":"Feature","properties":{"type":"sawah","no":3},"geometry":{"type":"Polygon","coordinates":[[[112.423867,-7.184913],[112.423924,-7.185301],[112.42381,-7.185584],[112.424038,-7.186102],[112.424218,-7.186538],[112.424577,-7.186676],[112.424968,-7.187],[112.42496,-7.187347],[112.425212,-7.187946],[112.425555,-7.188205],[112.42553,-7.188658],[112.4254,-7.189127],[112.425434,-7.189675],[112.425711,-7.189975],[112.426127,-7.190112],[112.426845,-7.190233],[112.427317,-7.190484],[112.427358,-7.190112],[112.427146,-7.190088],[112.427154,-7.189926],[112.427415,-7.189902],[112.427252,-7.189764],[112.427032,-7.189635],[112.427179,-7.189416],[112.427179,-7.189141],[112.427073,-7.188899],[112.427366,-7.189077],[112.427717,-7.189166],[112.427864,-7.189069],[112.428165,-7.189174],[112.42779,-7.189222],[112.427538,-7.189319],[112.427529,-7.18957],[112.427676,-7.189627],[112.427611,-7.189772],[112.427676,-7.190128],[112.427652,-7.190646],[112.428239,-7.1908],[112.428883,-7.190767],[112.429918,-7.190864],[112.430742,-7.190905],[112.431051,-7.19101],[112.430513,-7.189085],[112.430342,-7.187694],[112.430089,-7.187216],[112.429119,-7.18703],[112.428597,-7.186529],[112.427904,-7.186011],[112.427174,-7.185538],[112.42644,-7.185255],[112.426041,-7.185028],[112.425478,-7.184988],[112.425136,-7.184867],[112.424647,-7.184867],[112.423867,-7.184913]]]}},{"type":"Feature","properties":{"type":"sawah","no":4},"geometry":{"type":"Polygon","coordinates":[[[112.353327,-7.147887],[112.353046,-7.148843],[112.352667,-7.150242],[112.352307,-7.151488],[112.353076,-7.151736],[112.353905,-7.151924],[112.355508,-7.152299],[112.356735,-7.152524],[112.35732,-7.152687],[112.357553,-7.151264],[112.357687,-7.150629],[112.358228,-7.150714],[112.359161,-7.150853],[112.359308,-7.149782],[112.359423,-7.148906],[112.359472,-7.148113],[112.359447,-7.147484],[112.358996,-7.147623],[112.358173,-7.147696],[112.356563,-7.147738],[112.355012,-7.147497],[112.35414,-7.147352],[112.354073,-7.147563],[112.354244,-7.147636],[112.354158,-7.148072],[112.354049,-7.148265],[112.35386,-7.148187],[112.353543,-7.147951],[112.353476,-7.147926],[112.353327,-7.147887]]]}},{"type":"Feature","properties":{"type":"sawah","no":5},"geometry":{"type":"Polygon","coordinates":[[[112.354971,-7.147299],[112.356285,-7.14755],[112.357329,-7.147692],[112.35823,-7.147658],[112.358769,-7.147469],[112.358987,-7.147225],[112.358987,-7.146257],[112.358339,-7.146284],[112.358277,-7.145695],[112.358393,-7.14539],[112.358045,-7.145553],[112.357984,-7.145323],[112.358284,-7.144978],[112.358373,-7.144849],[112.358079,-7.144524],[112.358189,-7.144246],[112.358564,-7.144037],[112.358837,-7.143678],[112.358864,-7.143211],[112.357909,-7.143021],[112.357336,-7.142845],[112.356101,-7.142561],[112.355501,-7.142425],[112.355392,-7.143109],[112.355276,-7.143731],[112.355037,-7.14371],[112.354941,-7.144205],[112.355078,-7.144279],[112.355296,-7.144218],[112.355719,-7.144164],[112.355869,-7.144428],[112.355946,-7.144705],[112.355763,-7.145565],[112.355492,-7.146768],[112.355161,-7.14664],[112.354971,-7.147299]]]}},{"type":"Feature","properties":{"type":"sawah","no":6},"geometry":{"type":"Polygon","coordinates":[[[112.357378,-7.133919],[112.357369,-7.13461],[112.35753,-7.134737],[112.357114,-7.136414],[112.358771,-7.136869],[112.360266,-7.137181],[112.361014,-7.137249],[112.361133,-7.1366],[112.361243,-7.135942],[112.361413,-7.135984],[112.361583,-7.135664],[112.361642,-7.135285],[112.361914,-7.13542],[112.362492,-7.135057],[112.362704,-7.134189],[112.362492,-7.133607],[112.361056,-7.13354],[112.360886,-7.133894],[112.360376,-7.133919],[112.359425,-7.133675],[112.359128,-7.133582],[112.358745,-7.133742],[112.358516,-7.13386],[112.358295,-7.134189],[112.357964,-7.134197],[112.357378,-7.133919]]]}},{"type":"Feature","properties":{"no":7,"type":"sawah"},"geometry":{"type":"Polygon","coordinates":[[[112.358156,-7.125593],[112.357565,-7.129079],[112.357895,-7.12935],[112.357826,-7.129519],[112.357588,-7.129429],[112.357497,-7.129891],[112.35769,-7.129812],[112.357656,-7.130139],[112.357451,-7.130049],[112.357406,-7.130275],[112.357656,-7.130376],[112.357622,-7.130602],[112.357326,-7.13076],[112.357269,-7.131301],[112.361464,-7.129868],[112.362567,-7.129609],[112.362817,-7.12856],[112.363431,-7.128571],[112.363669,-7.127849],[112.36384,-7.127094],[112.358156,-7.125593]]]}},{"type":"Feature","properties":{"no":8,"type":"sawah"},"geometry":{"type":"Polygon","coordinates":[[[112.368915,-7.11654],[112.369475,-7.118872],[112.370622,-7.11915],[112.371984,-7.119529],[112.372637,-7.119631],[112.374074,-7.120187],[112.374391,-7.12027],[112.374736,-7.119881],[112.375258,-7.11902],[112.375762,-7.118261],[112.373971,-7.117687],[112.368915,-7.11654]]]}},{"type":"Feature","properties":{"no":9,"type":"sawah"},"geometry":{"type":"Polygon","coordinates":[[[112.397537,-7.077216],[112.399275,-7.077883],[112.399964,-7.078058],[112.400527,-7.076258],[112.401568,-7.073291],[112.400586,-7.073024],[112.400376,-7.072782],[112.399586,-7.072466],[112.399158,-7.072391],[112.397537,-7.077216]]]}},{"type":"Feature","properties":{"no":0,"type":"sawah"},"geometry":{"type":"Polygon","coordinates":[[[112.394654,-7.0761],[112.396022,-7.076796],[112.397221,-7.077296],[112.397364,-7.077073],[112.397942,-7.075344],[112.397207,-7.075073],[112.39641,-7.074742],[112.395607,-7.074472],[112.39528,-7.075188],[112.395226,-7.07506],[112.395437,-7.074459],[112.395416,-7.074432],[112.394654,-7.0761]]]}}]}