{"type":"FeatureCollection","features":[{"type":"Feature","properties":{"Sawah":"socah"},"geometry":{"type":"Polygon","coordinates":[[[112.673625,-7.063601],[112.673625,-7.075242],[112.686583,-7.09365],[112.701041,-7.096087],[112.705952,-7.105832],[112.70186,-7.119638],[112.728321,-7.124239],[112.744689,-7.115577],[112.747962,-7.105561],[112.773878,-7.113141],[112.789973,-7.110975],[112.786699,-7.084176],[112.764876,-7.087153],[112.768967,-7.077137],[112.752873,-7.074971],[112.744143,-7.059269],[112.706225,-7.052501],[112.675944,-7.05223],[112.67395,-7.057179],[112.673625,-7.063601]]]}},{"type":"Feature","properties":{"Sawah":"sawah"},"geometry":{"type":"Polygon","coordinates":[[[112.698501,-7.078664],[112.698472,-7.078721],[112.698463,-7.078808],[112.698546,-7.078987],[112.698634,-7.079],[112.698724,-7.078746],[112.698501,-7.078664]]]}},{"type":"Feature","properties":{"Sawah":"sawah"},"geometry":{"type":"Polygon","coordinates":[[[112.69856,-7.079009],[112.698518,-7.079049],[112.698492,-7.079099],[112.698449,-7.07926],[112.698593,-7.079328],[112.698672,-7.079047],[112.69856,-7.079009]]]}},{"type":"Feature","properties":{"Sawah":"sawah"},"geometry":{"type":"Polygon","coordinates":[[[112.698443,-7.078827],[112.698311,-7.078911],[112.698316,-7.078994],[112.698475,-7.079082],[112.698526,-7.078988],[112.698443,-7.078827]]]}},{"type":"Feature","properties":{"Sawah":"sawah"},"geometry":{"type":"Polygon","coordinates":[[[112.698238,-7.078851],[112.698202,-7.078849],[112.698184,-7.078854],[112.698203,-7.078989],[112.698298,-7.078992],[112.698293,-7.078907],[112.698238,-7.078851]]]}},{"type":"Feature","properties":{"Sawah":"sawah"},"geometry":{"type":"Polygon","coordinates":[[[112.69865,-7.077807],[112.698562,-7.077931],[112.698735,-7.078117],[112.699015,-7.078268],[112.699162,-7.078149],[112.698995,-7.077968],[112.698808,-7.07786],[112.69865,-7.077807]]]}},{"type":"Feature","properties":{"Sawah":"sawah"},"geometry":{"type":"Polygon","coordinates":[[[112.699193,-7.078181],[112.699152,-7.078318],[112.69937,-7.078351],[112.699398,-7.078257],[112.699251,-7.07817],[112.699193,-7.078181]]]}},{"type":"Feature","properties":{"Sawah":"sawah"},"geometry":{"type":"Polygon","coordinates":[[[112.698325,-7.079049],[112.698286,-7.079091],[112.69826,-7.079164],[112.698431,-7.079219],[112.698453,-7.079098],[112.698325,-7.079049]]]}},{"type":"Feature","properties":{"Sawah":"sawah"},"geometry":{"type":"Polygon","coordinates":[[[112.693817,-7.078363],[112.693788,-7.078418],[112.69374,-7.078468],[112.693751,-7.078563],[112.69378,-7.078612],[112.693955,-7.07861],[112.693993,-7.078441],[112.693817,-7.078363]]]}},{"type":"Feature","properties":{"Sawah":"sawah"},"geometry":{"type":"Polygon","coordinates":[[[112.69322,-7.078404],[112.693244,-7.078445],[112.693406,-7.078544],[112.69344,-7.078486],[112.69365,-7.077909],[112.693547,-7.077844],[112.693342,-7.078034],[112.69322,-7.078404]]]}},{"type":"Feature","properties":{"Sawah":"sawah"},"geometry":{"type":"Polygon","coordinates":[[[112.690771,-7.075592],[112.690807,-7.075922],[112.691042,-7.07589],[112.691025,-7.075544],[112.690771,-7.075592]]]}},{"type":"Feature","properties":{"Sawah":"sawah"},"geometry":{"type":"Polygon","coordinates":[[[112.689839,-7.073885],[112.689821,-7.074158],[112.6902,-7.074164],[112.690279,-7.073915],[112.689839,-7.073885]]]}},{"type":"Feature","properties":{"Sawah":"sawah"},"geometry":{"type":"Polygon","coordinates":[[[112.699689,-7.073184],[112.699595,-7.073165],[112.699442,-7.073149],[112.699429,-7.073204],[112.699447,-7.073279],[112.699667,-7.073279],[112.699689,-7.073184]]]}},{"type":"Feature","properties":{"Sawah":"sawah"},"geometry":{"type":"Polygon","coordinates":[[[112.699267,-7.072877],[112.699226,-7.073023],[112.699214,-7.073158],[112.699418,-7.073184],[112.699428,-7.072901],[112.699267,-7.072877]]]}},{"type":"Feature","properties":{"Sawah":"sawah"},"geometry":{"type":"Polygon","coordinates":[[[112.699065,-7.072129],[112.699001,-7.072214],[112.698972,-7.072376],[112.699096,-7.072424],[112.699218,-7.072368],[112.699284,-7.07218],[112.699065,-7.072129]]]}},{"type":"Feature","properties":{"Sawah":"sawah"},"geometry":{"type":"Polygon","coordinates":[[[112.699242,-7.07183],[112.699113,-7.071847],[112.699092,-7.072079],[112.699293,-7.072142],[112.699397,-7.071927],[112.699242,-7.07183]]]}},{"type":"Feature","properties":{"Sawah":"sawah"},"geometry":{"type":"Polygon","coordinates":[[[112.69916,-7.070964],[112.699132,-7.071255],[112.69931,-7.071281],[112.699301,-7.070985],[112.69916,-7.070964]]]}},{"type":"Feature","properties":{"Sawah":"sawah"},"geometry":{"type":"Polygon","coordinates":[[[112.698935,-7.070467],[112.699242,-7.07052],[112.699249,-7.070326],[112.699003,-7.070151],[112.698935,-7.070467]]]}},{"type":"Feature","properties":{"Sawah":"sawah"},"geometry":{"type":"Polygon","coordinates":[[[112.696369,-7.067718],[112.696298,-7.067953],[112.696413,-7.068003],[112.696514,-7.067749],[112.696369,-7.067718]]]}},{"type":"Feature","properties":{"Sawah":"sawah"},"geometry":{"type":"Polygon","coordinates":[[[112.695939,-7.067413],[112.695801,-7.067692],[112.695797,-7.067688],[112.695794,-7.067688],[112.695946,-7.067742],[112.696047,-7.067457],[112.695939,-7.067413]]]}},{"type":"Feature","properties":{"Sawah":"sawah"},"geometry":{"type":"Polygon","coordinates":[[[112.694687,-7.067309],[112.694575,-7.067532],[112.694701,-7.06763],[112.694799,-7.067362],[112.694687,-7.067309]]]}},{"type":"Feature","properties":{"Sawah":"sawah"},"geometry":{"type":"Polygon","coordinates":[[[112.694865,-7.066309],[112.694769,-7.066484],[112.694916,-7.066554],[112.694967,-7.066371],[112.694865,-7.066309]]]}},{"type":"Feature","properties":{"Sawah":"sawah"},"geometry":{"type":"Polygon","coordinates":[[[112.69465,-7.065722],[112.694562,-7.066014],[112.694769,-7.066045],[112.694837,-7.065801],[112.69465,-7.065722]]]}},{"type":"Feature","properties":{"Sawah":"sawah"},"geometry":{"type":"Polygon","coordinates":[[[112.695714,-7.066117],[112.695615,-7.066307],[112.69574,-7.066373],[112.695849,-7.066158],[112.695714,-7.066117]]]}},{"type":"Feature","properties":{"Sawah":"sawah"},"geometry":{"type":"Polygon","coordinates":[[[112.696148,-7.066616],[112.696081,-7.066716],[112.696313,-7.066833],[112.696379,-7.066722],[112.696148,-7.066616]]]}},{"type":"Feature","properties":{"Sawah":"sawah"},"geometry":{"type":"Polygon","coordinates":[[[112.696215,-7.065712],[112.696364,-7.065497],[112.696248,-7.065433],[112.696091,-7.065681],[112.696215,-7.065712]]]}},{"type":"Feature","properties":{"Sawah":"sawah"},"geometry":{"type":"Polygon","coordinates":[[[112.695833,-7.065565],[112.695703,-7.065755],[112.69592,-7.065817],[112.696019,-7.065663],[112.695833,-7.065565]]]}},{"type":"Feature","properties":{"Sawah":"sawah"},"geometry":{"type":"Polygon","coordinates":[[[112.694849,-7.06439],[112.694784,-7.064535],[112.695167,-7.064715],[112.695209,-7.064542],[112.694849,-7.06439]]]}},{"type":"Feature","properties":{"Sawah":"sawah"},"geometry":{"type":"Polygon","coordinates":[[[112.694892,-7.063928],[112.694774,-7.064195],[112.694904,-7.064257],[112.695032,-7.064006],[112.694892,-7.063928]]]}},{"type":"Feature","properties":{"Sawah":"sawah"},"geometry":{"type":"Polygon","coordinates":[[[112.695245,-7.063233],[112.695085,-7.063224],[112.695055,-7.063418],[112.695206,-7.063436],[112.695245,-7.063233]]]}},{"type":"Feature","properties":{"Sawah":"sawah"},"geometry":{"type":"Polygon","coordinates":[[[112.695852,-7.0628],[112.695723,-7.062991],[112.695846,-7.063075],[112.695984,-7.062822],[112.695852,-7.0628]]]}},{"type":"Feature","properties":{"Sawah":"sawah"},"geometry":{"type":"Polygon","coordinates":[[[112.697548,-7.062768],[112.697472,-7.062892],[112.69772,-7.063022],[112.697789,-7.062881],[112.697596,-7.06275],[112.697548,-7.062768]]]}},{"type":"Feature","properties":{"Sawah":"sawah"},"geometry":{"type":"Polygon","coordinates":[[[112.697125,-7.062385],[112.697009,-7.062563],[112.696979,-7.06284],[112.697114,-7.06289],[112.697266,-7.062438],[112.697125,-7.062385]]]}},{"type":"Feature","properties":{"Sawah":"sawah"},"geometry":{"type":"Polygon","coordinates":[[[112.697484,-7.061168],[112.697437,-7.061352],[112.697417,-7.061526],[112.697555,-7.061522],[112.697643,-7.061221],[112.697484,-7.061168]]]}},{"type":"Feature","properties":{"Sawah":"sawah"},"geometry":{"type":"Polygon","coordinates":[[[112.695843,-7.060613],[112.695812,-7.060777],[112.695961,-7.060837],[112.696004,-7.060636],[112.695843,-7.060613]]]}},{"type":"Feature","properties":{"Sawah":"sawah"},"geometry":{"type":"Polygon","coordinates":[[[112.695191,-7.060014],[112.695151,-7.060167],[112.695434,-7.060248],[112.695485,-7.060107],[112.695191,-7.060014]]]}},{"type":"Feature","properties":{"Sawah":"sawah"},"geometry":{"type":"Polygon","coordinates":[[[112.696004,-7.059597],[112.695933,-7.059718],[112.696125,-7.059808],[112.696216,-7.059644],[112.696004,-7.059597]]]}},{"type":"Feature","properties":{"Sawah":"sawah"},"geometry":{"type":"Polygon","coordinates":[[[112.695922,-7.059044],[112.695851,-7.059245],[112.696036,-7.059288],[112.696103,-7.059101],[112.695922,-7.059044]]]}},{"type":"Feature","properties":{"Sawah":"sawah"},"geometry":{"type":"Polygon","coordinates":[[[112.696322,-7.058502],[112.696245,-7.058622],[112.696232,-7.058779],[112.69645,-7.058863],[112.696518,-7.058679],[112.69641,-7.058529],[112.696322,-7.058502]]]}},{"type":"Feature","properties":{"Sawah":"sawah"},"geometry":{"type":"Polygon","coordinates":[[[112.698553,-7.058582],[112.698472,-7.058686],[112.698678,-7.058829],[112.698789,-7.058709],[112.698553,-7.058582]]]}},{"type":"Feature","properties":{"Sawah":"sawah"},"geometry":{"type":"Polygon","coordinates":[[[112.699525,-7.058951],[112.69942,-7.059148],[112.699568,-7.059242],[112.699676,-7.059035],[112.699525,-7.058951]]]}},{"type":"Feature","properties":{"Sawah":"sawah"},"geometry":{"type":"Polygon","coordinates":[[[112.689465,-7.05912],[112.689422,-7.059299],[112.689383,-7.059472],[112.689669,-7.059488],[112.689702,-7.059139],[112.689465,-7.05912]]]}},{"type":"Feature","properties":{"Sawah":"sawah"},"geometry":{"type":"Polygon","coordinates":[[[112.688803,-7.059799],[112.688746,-7.060328],[112.688953,-7.060328],[112.68898,-7.060046],[112.688995,-7.059864],[112.688803,-7.059799]]]}},{"type":"Feature","properties":{"Sawah":"sawah"},"geometry":{"type":"Polygon","coordinates":[[[112.687857,-7.059612],[112.687846,-7.059766],[112.688097,-7.059781],[112.68813,-7.059668],[112.688043,-7.059597],[112.687857,-7.059612]]]}},{"type":"Feature","properties":{"Sawah":"sawah"},"geometry":{"type":"Polygon","coordinates":[[[112.686462,-7.058618],[112.686422,-7.058782],[112.686557,-7.058889],[112.686619,-7.058656],[112.686462,-7.058618]]]}},{"type":"Feature","properties":{"Sawah":"sawah"},"geometry":{"type":"Polygon","coordinates":[[[112.686677,-7.058086],[112.686642,-7.058292],[112.68682,-7.058316],[112.686828,-7.058123],[112.686677,-7.058086]]]}},{"type":"Feature","properties":{"Sawah":"sawah"},"geometry":{"type":"Polygon","coordinates":[[[112.686949,-7.058428],[112.686968,-7.058604],[112.687251,-7.058591],[112.687254,-7.058468],[112.686949,-7.058428]]]}},{"type":"Feature","properties":{"Sawah":"sawah"},"geometry":{"type":"Polygon","coordinates":[[[112.681229,-7.058793],[112.681139,-7.05917],[112.681499,-7.059236],[112.681542,-7.058823],[112.681229,-7.058793]]]}},{"type":"Feature","properties":{"Sawah":"sawah"},"geometry":{"type":"Polygon","coordinates":[[[112.680497,-7.058826],[112.680433,-7.059203],[112.680563,-7.05921],[112.68061,-7.058813],[112.680497,-7.058826]]]}},{"type":"Feature","properties":{"Sawah":"sawah"},"geometry":{"type":"Polygon","coordinates":[[[112.680425,-7.060095],[112.680384,-7.060164],[112.68038,-7.060248],[112.680364,-7.060248],[112.680595,-7.060305],[112.680624,-7.060115],[112.680425,-7.060095]]]}},{"type":"Feature","properties":{"Sawah":"sawah"},"geometry":{"type":"Polygon","coordinates":[[[112.679294,-7.05893],[112.6792,-7.05916],[112.679346,-7.0592],[112.679392,-7.058919],[112.679294,-7.05893]]]}},{"type":"Feature","properties":{"Sawah":"bukan"},"geometry":{"type":"Polygon","coordinates":[[[112.68791,-7.07291],[112.687877,-7.073003],[112.687853,-7.07308],[112.687845,-7.07308],[112.688025,-7.07316],[112.688072,-7.072992],[112.68791,-7.07291]]]}},{"type":"Feature","properties":{"Sawah":"bukan"},"geometry":{"type":"Polygon","coordinates":[[[112.688055,-7.072326],[112.688038,-7.072462],[112.68825,-7.072505],[112.688298,-7.072474],[112.688276,-7.072334],[112.688109,-7.072304],[112.688055,-7.072326]]]}},{"type":"Feature","properties":{"Sawah":"bukan"},"geometry":{"type":"Polygon","coordinates":[[[112.689477,-7.072017],[112.689348,-7.072218],[112.689544,-7.072321],[112.689633,-7.072276],[112.689646,-7.072076],[112.689477,-7.072017]]]}},{"type":"Feature","properties":{"Sawah":"bukan"},"geometry":{"type":"Polygon","coordinates":[[[112.689881,-7.070776],[112.689846,-7.070965],[112.689997,-7.07105],[112.690039,-7.070823],[112.689881,-7.070776]]]}},{"type":"Feature","properties":{"Sawah":"bukan"},"geometry":{"type":"Polygon","coordinates":[[[112.690893,-7.070407],[112.690803,-7.070678],[112.691038,-7.070764],[112.691145,-7.070572],[112.690893,-7.070407]]]}},{"type":"Feature","properties":{"Sawah":"bukan"},"geometry":{"type":"Polygon","coordinates":[[[112.691703,-7.070053],[112.691596,-7.070133],[112.691506,-7.070198],[112.691622,-7.070487],[112.691929,-7.070272],[112.691703,-7.070053]]]}},{"type":"Feature","properties":{"Sawah":"bukan"},"geometry":{"type":"Polygon","coordinates":[[[112.692026,-7.069584],[112.692004,-7.069622],[112.691988,-7.06965],[112.691999,-7.0698],[112.692421,-7.07],[112.692436,-7.069741],[112.69234,-7.069614],[112.69212,-7.069465],[112.692026,-7.069584]]]}},{"type":"Feature","properties":{"Sawah":"bukan"},"geometry":{"type":"Polygon","coordinates":[[[112.692838,-7.069819],[112.692612,-7.069976],[112.692612,-7.070245],[112.692497,-7.070427],[112.692765,-7.070535],[112.692896,-7.070257],[112.692948,-7.06987],[112.692838,-7.069819]]]}},{"type":"Feature","properties":{"Sawah":"bukan"},"geometry":{"type":"Polygon","coordinates":[[[112.693294,-7.069039],[112.693264,-7.06916],[112.693374,-7.06929],[112.693745,-7.069363],[112.693697,-7.069172],[112.693544,-7.06893],[112.693294,-7.069039]]]}},{"type":"Feature","properties":{"Sawah":"bukan"},"geometry":{"type":"Polygon","coordinates":[[[112.692167,-7.068503],[112.692104,-7.06868],[112.692263,-7.068791],[112.692353,-7.06861],[112.692167,-7.068503]]]}},{"type":"Feature","properties":{"Sawah":"bukan"},"geometry":{"type":"Polygon","coordinates":[[[112.690407,-7.067557],[112.690372,-7.067697],[112.690568,-7.067817],[112.690673,-7.067657],[112.690407,-7.067557]]]}},{"type":"Feature","properties":{"Sawah":"bukan"},"geometry":{"type":"Polygon","coordinates":[[[112.689219,-7.068483],[112.689174,-7.068668],[112.68941,-7.068792],[112.689536,-7.068563],[112.689219,-7.068483]]]}},{"type":"Feature","properties":{"Sawah":"bukan"},"geometry":{"type":"Polygon","coordinates":[[[112.688005,-7.068254],[112.687784,-7.068598],[112.688146,-7.068688],[112.688292,-7.068393],[112.688005,-7.068254]]]}},{"type":"Feature","properties":{"Sawah":"bukan"},"geometry":{"type":"Polygon","coordinates":[[[112.687556,-7.06729],[112.687405,-7.067644],[112.687701,-7.067759],[112.687852,-7.0674],[112.687556,-7.06729]]]}},{"type":"Feature","properties":{"Sawah":"bukan"},"geometry":{"type":"Polygon","coordinates":[[[112.686291,-7.063943],[112.686221,-7.064492],[112.686547,-7.064591],[112.686658,-7.064262],[112.686467,-7.064172],[112.686467,-7.063983],[112.686291,-7.063943]]]}},{"type":"Feature","properties":{"Sawah":"bukan"},"geometry":{"type":"Polygon","coordinates":[[[112.687915,-7.064277],[112.687874,-7.064621],[112.68803,-7.064751],[112.688151,-7.064282],[112.687915,-7.064277]]]}},{"type":"Feature","properties":{"Sawah":"bukan"},"geometry":{"type":"Polygon","coordinates":[[[112.690562,-7.063989],[112.690572,-7.064264],[112.690743,-7.064294],[112.690738,-7.064004],[112.690562,-7.063989]]]}},{"type":"Feature","properties":{"Sawah":"bukan"},"geometry":{"type":"Polygon","coordinates":[[[112.691102,-7.06332],[112.691067,-7.06341],[112.691067,-7.063475],[112.691168,-7.063609],[112.691168,-7.063884],[112.691293,-7.063794],[112.691439,-7.063574],[112.691464,-7.06335],[112.691283,-7.06327],[112.691102,-7.06332]]]}},{"type":"Feature","properties":{"Sawah":"bukan"},"geometry":{"type":"Polygon","coordinates":[[[112.690522,-7.06133],[112.690497,-7.061595],[112.690814,-7.061664],[112.690844,-7.0614],[112.690522,-7.06133]]]}},{"type":"Feature","properties":{"Sawah":"bukan"},"geometry":{"type":"Polygon","coordinates":[[[112.688582,-7.060901],[112.688497,-7.061066],[112.688723,-7.06119],[112.688773,-7.060946],[112.688582,-7.060901]]]}},{"type":"Feature","properties":{"Sawah":"bukan"},"geometry":{"type":"Polygon","coordinates":[[[112.691644,-7.060302],[112.691477,-7.060563],[112.691699,-7.060663],[112.691989,-7.060733],[112.691941,-7.060427],[112.691644,-7.060302]]]}},{"type":"Feature","properties":{"Sawah":"bukan"},"geometry":{"type":"Polygon","coordinates":[[[112.692386,-7.060239],[112.692331,-7.060405],[112.692468,-7.06046],[112.692498,-7.060261],[112.692386,-7.060239]]]}},{"type":"Feature","properties":{"Sawah":"bukan"},"geometry":{"type":"Polygon","coordinates":[[[112.693961,-7.061927],[112.69392,-7.062171],[112.694254,-7.062119],[112.694146,-7.061957],[112.694139,-7.06196],[112.694061,-7.061946],[112.693961,-7.061927]]]}},{"type":"Feature","properties":{"Sawah":"bukan"},"geometry":{"type":"Polygon","coordinates":[[[112.682161,-7.062724],[112.682037,-7.062915],[112.682347,-7.063093],[112.682457,-7.062847],[112.682161,-7.062724]]]}},{"type":"Feature","properties":{"Sawah":"bukan"},"geometry":{"type":"Polygon","coordinates":[[[112.680549,-7.063694],[112.680446,-7.063933],[112.680735,-7.064056],[112.680804,-7.063756],[112.680549,-7.063694]]]}},{"type":"Feature","properties":{"Sawah":"bukan"},"geometry":{"type":"Polygon","coordinates":[[[112.681769,-7.065609],[112.681685,-7.065839],[112.682142,-7.066058],[112.682238,-7.065811],[112.681769,-7.065609]]]}},{"type":"Feature","properties":{"Sawah":"bukan"},"geometry":{"type":"Polygon","coordinates":[[[112.682148,-7.067546],[112.682138,-7.06773],[112.682175,-7.067988],[112.682416,-7.068039],[112.682421,-7.06762],[112.682148,-7.067546]]]}},{"type":"Feature","properties":{"Sawah":"bukan"},"geometry":{"type":"Polygon","coordinates":[[[112.681693,-7.068594],[112.681662,-7.068761],[112.681909,-7.068842],[112.681921,-7.068662],[112.681802,-7.068609],[112.681693,-7.068594]]]}},{"type":"Feature","properties":{"Sawah":"bukan"},"geometry":{"type":"Polygon","coordinates":[[[112.681737,-7.069462],[112.681724,-7.069682],[112.681887,-7.069657],[112.681862,-7.069406],[112.681737,-7.069462]]]}},{"type":"Feature","properties":{"Sawah":"bukan"},"geometry":{"type":"Polygon","coordinates":[[[112.679925,-7.069165],[112.679866,-7.069396],[112.680103,-7.069433],[112.68012,-7.069157],[112.679925,-7.069165]]]}},{"type":"Feature","properties":{"Sawah":"bukan"},"geometry":{"type":"Polygon","coordinates":[[[112.679772,-7.069787],[112.679743,-7.069959],[112.679832,-7.069984],[112.679992,-7.069883],[112.679925,-7.069804],[112.679772,-7.069787]]]}},{"type":"Feature","properties":{"Sawah":"bukan"},"geometry":{"type":"Polygon","coordinates":[[[112.681043,-7.072266],[112.681005,-7.072371],[112.681043,-7.072505],[112.681203,-7.072551],[112.681262,-7.072362],[112.681043,-7.072266]]]}},{"type":"Feature","properties":{"Sawah":"bukan"},"geometry":{"type":"Polygon","coordinates":[[[112.682471,-7.072772],[112.682499,-7.072939],[112.682893,-7.072915],[112.682883,-7.072719],[112.682599,-7.072753],[112.682471,-7.072772]]]}},{"type":"Feature","properties":{"Sawah":"bukan"},"geometry":{"type":"Polygon","coordinates":[[[112.680469,-7.076081],[112.68037,-7.076253],[112.680548,-7.076402],[112.680656,-7.076123],[112.680469,-7.076081]]]}},{"type":"Feature","properties":{"Sawah":"bukan"},"geometry":{"type":"Polygon","coordinates":[[[112.683484,-7.078128],[112.683463,-7.078182],[112.683467,-7.078174],[112.683467,-7.078174],[112.683458,-7.078233],[112.683463,-7.078233],[112.683437,-7.078379],[112.683716,-7.078182],[112.683484,-7.078128]]]}},{"type":"Feature","properties":{"Sawah":"bukan"},"geometry":{"type":"Polygon","coordinates":[[[112.683678,-7.07613],[112.683615,-7.076575],[112.68394,-7.076701],[112.684037,-7.076277],[112.683678,-7.07613]]]}},{"type":"Feature","properties":{"Sawah":"bukan"},"geometry":{"type":"Polygon","coordinates":[[[112.68584,-7.077629],[112.685809,-7.077897],[112.686007,-7.077976],[112.686045,-7.077814],[112.685937,-7.077704],[112.685927,-7.077632],[112.68592,-7.077632],[112.685861,-7.077615],[112.68584,-7.077629]]]}},{"type":"Feature","properties":{"Sawah":"bukan"},"geometry":{"type":"Polygon","coordinates":[[[112.684137,-7.082817],[112.683998,-7.08312],[112.684189,-7.083299],[112.684414,-7.082889],[112.684137,-7.082817]]]}},{"type":"Feature","properties":{"Sawah":"bukan"},"geometry":{"type":"Polygon","coordinates":[[[112.685675,-7.083899],[112.685637,-7.08412],[112.685849,-7.084206],[112.68588,-7.083985],[112.685675,-7.083899]]]}},{"type":"Feature","properties":{"Sawah":"bukan"},"geometry":{"type":"Polygon","coordinates":[[[112.687322,-7.086382],[112.687258,-7.086579],[112.687461,-7.086575],[112.687499,-7.086412],[112.687398,-7.086361],[112.687322,-7.086382]]]}},{"type":"Feature","properties":{"Sawah":"bukan"},"geometry":{"type":"Polygon","coordinates":[[[112.690965,-7.091429],[112.690836,-7.09162],[112.691044,-7.091701],[112.691143,-7.091448],[112.690965,-7.091429]]]}},{"type":"Feature","properties":{"Sawah":"bukan"},"geometry":{"type":"Polygon","coordinates":[[[112.695322,-7.09069],[112.69534,-7.09096],[112.695728,-7.091081],[112.695774,-7.090748],[112.695322,-7.09069]]]}},{"type":"Feature","properties":{"Sawah":"bukan"},"geometry":{"type":"Polygon","coordinates":[[[112.693776,-7.090817],[112.693669,-7.091583],[112.69379,-7.091733],[112.693924,-7.091491],[112.694219,-7.091095],[112.694161,-7.090756],[112.694497,-7.090515],[112.694601,-7.090066],[112.69435,-7.090202],[112.694106,-7.090041],[112.693574,-7.089926],[112.693527,-7.090415],[112.693846,-7.090489],[112.69395,-7.090742],[112.693776,-7.090817]]]}},{"type":"Feature","properties":{"Sawah":"bukan"},"geometry":{"type":"Polygon","coordinates":[[[112.693725,-7.089606],[112.693596,-7.089719],[112.69362,-7.089818],[112.693919,-7.089893],[112.694095,-7.089761],[112.694005,-7.089563],[112.693725,-7.089606]]]}},{"type":"Feature","properties":{"Sawah":"bukan"},"geometry":{"type":"Polygon","coordinates":[[[112.694895,-7.087597],[112.694832,-7.087694],[112.694818,-7.087809],[112.694804,-7.087809],[112.694962,-7.087876],[112.695029,-7.087646],[112.694895,-7.087597]]]}},{"type":"Feature","properties":{"Sawah":"bukan"},"geometry":{"type":"Polygon","coordinates":[[[112.691646,-7.092752],[112.692035,-7.092847],[112.692154,-7.092352],[112.691717,-7.092309],[112.691646,-7.092752]]]}},{"type":"Feature","properties":{"Sawah":"bukan"},"geometry":{"type":"Polygon","coordinates":[[[112.689412,-7.092377],[112.689369,-7.092589],[112.689531,-7.092627],[112.689583,-7.092401],[112.689412,-7.092377]]]}},{"type":"Feature","properties":{"Sawah":"bukan"},"geometry":{"type":"Polygon","coordinates":[[[112.688673,-7.092992],[112.688673,-7.093369],[112.688963,-7.093336],[112.688997,-7.093062],[112.688673,-7.092992]]]}},{"type":"Feature","properties":{"Sawah":"bukan"},"geometry":{"type":"Polygon","coordinates":[[[112.688537,-7.091582],[112.688546,-7.091794],[112.688926,-7.091889],[112.688964,-7.091526],[112.688812,-7.091488],[112.688817,-7.091615],[112.688537,-7.091582]]]}},{"type":"Feature","properties":{"Sawah":"bukan"},"geometry":{"type":"Polygon","coordinates":[[[112.685515,-7.089575],[112.685585,-7.090264],[112.687082,-7.090074],[112.687043,-7.089401],[112.685515,-7.089575]]]}}]}